{"version": 0.6, "generator": "Overpass API 0.7.57.2 48842a1b", "osm3s": {"timestamp_osm_base": "2022-05-03T17:12:48Z", "copyright": "The data included in this document is from www.openstreetmap.org. The data is made available under ODbL."}, "elements": [{"type": "node", "id": 325323781, "lat": 42.3270425, "lon": -71.0666772}, {"type": "node", "id": 325372918, "lat": 42.3270272, "lon": -71.06671}, {"type": "node", "id": 325918781, "lat": 42.3270716, "lon": -71.0669134}, {"type": "node", "id": 325978813, "lat": 42.3271423, "lon": -71.0667621}, {"type": "node", "id": 326053007, "lat": 42.3269698, "lon": -71.0666613}, {"type": "node", "id": 326072297, "lat": 42.3269144, "lon": -71.06678}, {"type": "node", "id": 326157680, "lat": 42.3625962, "lon": -71.140474}, {"type": "node", "id": 326165484, "lat": 42.3628943, "lon": -71.1405595}, {"type": "node", "id": 326200108, "lat": 42.3629021, "lon": -71.1405102}, {"type": "node", "id": 326203523, "lat": 42.3628437, "lon": -71.1404934}, {"type": "node", "id": 326227820, "lat": 42.3628667, "lon": -71.1403475}, {"type": "node", "id": 326231769, "lat": 42.362627, "lon": -71.1402787}, {"type": "node", "id": 327267724, "lat": 42.3061312, "lon": -71.1075085}, {"type": "node", "id": 327278623, "lat": 42.3060385, "lon": -71.1073354}, {"type": "node", "id": 327283701, "lat": 42.3061056, "lon": -71.1073356}, {"type": "node", "id": 327290502, "lat": 42.3061793, "lon": -71.107473}, {"type": "node", "id": 327293616, "lat": 42.3061457, "lon": -71.1074103}, {"type": "node", "id": 328081387, "lat": 42.3389908, "lon": -71.1076082}, {"type": "node", "id": 328085447, "lat": 42.3387954, "lon": -71.1086591}, {"type": "node", "id": 328085509, "lat": 42.3389178, "lon": -71.1074343}, {"type": "node", "id": 328093295, "lat": 42.3385389, "lon": -71.1079012}, {"type": "node", "id": 328094205, "lat": 42.3388309, "lon": -71.1086214}, {"type": "node", "id": 328100509, "lat": 42.3387912, "lon": -71.1083096}, {"type": "node", "id": 328101257, "lat": 42.3385802, "lon": -71.1078575}, {"type": "node", "id": 328108950, "lat": 42.3386684, "lon": -71.1084396}, {"type": "node", "id": 328111542, "lat": 42.3390102, "lon": -71.1087111}, {"type": "node", "id": 328116492, "lat": 42.3389105, "lon": -71.1088167}, {"type": "node", "id": 328124892, "lat": 42.3388171, "lon": -71.1085975}, {"type": "node", "id": 328133936, "lat": 42.3388961, "lon": -71.1085139}, {"type": "node", "id": 328137460, "lat": 42.3385566, "lon": -71.1078167}, {"type": "node", "id": 328151134, "lat": 42.338749, "lon": -71.1089524}, {"type": "node", "id": 328152207, "lat": 42.3390079, "lon": -71.1075901}, {"type": "node", "id": 328160307, "lat": 42.3389237, "lon": -71.1088396}, {"type": "node", "id": 328161052, "lat": 42.3387914, "lon": -71.1078193}, {"type": "node", "id": 328173950, "lat": 42.3388975, "lon": -71.1088673}, {"type": "node", "id": 328183706, "lat": 42.3385221, "lon": -71.1078721}, {"type": "node", "id": 328188723, "lat": 42.3388863, "lon": -71.1082089}, {"type": "node", "id": 328198619, "lat": 42.3382753, "lon": -71.1081335}, {"type": "node", "id": 328209511, "lat": 42.3389012, "lon": -71.1080091}, {"type": "node", "id": 328219611, "lat": 42.3388716, "lon": -71.1088226}, {"type": "node", "id": 328220493, "lat": 42.3388202, "lon": -71.1080948}, {"type": "node", "id": 329235700, "lat": 42.3061768, "lon": -71.10738}, {"type": "node", "id": 329262535, "lat": 42.3062668, "lon": -71.1073438}, {"type": "node", "id": 329269940, "lat": 42.3062104, "lon": -71.1074428}, {"type": "node", "id": 329278439, "lat": 42.3063419, "lon": -71.1074747}, {"type": "node", "id": 329296437, "lat": 42.3062199, "lon": -71.1073382}, {"type": "node", "id": 329316928, "lat": 42.3063446, "lon": -71.1074302}, {"type": "node", "id": 329842435, "lat": 42.3738825, "lon": -71.038803}, {"type": "node", "id": 329918538, "lat": 42.3348726, "lon": -71.0335179}, {"type": "node", "id": 329918539, "lat": 42.3348981, "lon": -71.0335184}, {"type": "node", "id": 329918543, "lat": 42.3349677, "lon": -71.0334876}, {"type": "node", "id": 329918544, "lat": 42.3349687, "lon": -71.0334166}, {"type": "node", "id": 329918545, "lat": 42.334874, "lon": -71.0334142}, {"type": "node", "id": 530872406, "lat": 42.3384778, "lon": -71.0745113, "tags": {"amenity": "cafe", "name": "Flour", "opening_hours": "Mo-Fr 06:30-08:00, Su 08:00-05:00; Sa 08:00-06:00"}}, {"type": "node", "id": 616711875, "lat": 42.3664407, "lon": -71.0596808, "tags": {"amenity": "cafe", "name": "Equal Exchange Cafe"}}, {"type": "node", "id": 665496462, "lat": 42.3410968, "lon": -71.0814336, "tags": {"addr:city": "Boston", "addr:housenumber": "563", "addr:postcode": "02118", "addr:state": "MA", "addr:street": "Columbus Avenue", "air_conditioning": "yes", "amenity": "cafe", "cuisine": "coffee_shop;sandwiches", "internet_access": "wlan", "internet_access:fee": "customers", "internet_access:ssid": "Render Guest", "name": "Render Coffee", "opening_hours": "Mo-Fr 07:00-17:00; Sa-Su 08:00-17:00", "outdoor_seating": "yes", "website": "https://www.rendercoffeebar.com/"}}, {"type": "node", "id": 775407568, "lat": 42.3713805, "lon": -71.0611746, "tags": {"amenity": "cafe", "name": "Sorelle"}}, {"type": "node", "id": 946357490, "lat": 42.3349202, "lon": -71.0334154}, {"type": "node", "id": 1249775395, "lat": 42.3702445, "lon": -71.0190457, "tags": {"access": "permissive", "amenity": "cafe", "brand": "Starbucks", "brand:wikidata": "Q37158", "brand:wikipedia": "en:Starbucks", "cuisine": "coffee_shop", "internet_access": "wlan", "internet_access:fee": "no", "internet_access:ssid": "loganwifi", "level": "1", "name": "Starbucks", "official_name": "Starbucks Coffee", "takeaway": "yes"}}, {"type": "node", "id": 1249775410, "lat": 42.3699588, "lon": -71.0196218, "tags": {"amenity": "cafe", "cuisine": "sandwich", "level": "2", "name": "Dine Boston Caf\u00e9"}}, {"type": "node", "id": 1356510129, "lat": 42.3638, "lon": -71.055658, "tags": {"addr:housenumber": "97", "addr:street": "Salem Street", "amenity": "cafe", "name": "Boston Common Coffee Co."}}, {"type": "node", "id": 1356814953, "lat": 42.3482979, "lon": -71.0866366, "tags": {"addr:city": "Boston", "addr:housenumber": "338", "addr:postcode": "02115", "addr:state": "MA", "addr:street": "Newbury Street", "air_conditioning": "yes", "amenity": "cafe", "bar": "no", "contact:twitter": "https://twitter.com/TridentBooks", "cuisine": "breakfast;brunch", "delivery": "yes", "fax": "+1-617-247-1934", "internet_access": "wlan", "internet_access:fee": "customers", "level": "0;1", "name": "Trident Booksellers & Cafe", "opening_hours": "Mo-Su 08:00-24:00", "opening_hours:covid19": "open", "outdoor_seating": "no", "phone": "+1-617-267-8688", "reservation": "yes", "smoking": "no", "start_date": "1984", "takeaway": "yes", "website": "https://www.tridentbookscafe.com/", "wheelchair": "limited"}}, {"type": "node", "id": 1456378847, "lat": 42.3521337, "lon": -71.1158287, "tags": {"addr:housename": "Boston University Student Village", "addr:housenumber": "10", "addr:street": "Buick Street", "amenity": "cafe", "name": "Buick Street Cafe"}}, {"type": "node", "id": 1652921778, "lat": 42.3485218, "lon": -71.0762884, "tags": {"addr:city": "Boston", "addr:housenumber": "185", "addr:postcode": "02116", "addr:state": "MA", "addr:street": "Dartmouth Street", "amenity": "cafe", "brand": "Starbucks", "brand:wikidata": "Q37158", "brand:wikipedia": "en:Starbucks", "cuisine": "coffee_shop", "name": "Starbucks", "official_name": "Starbucks Coffee", "source": "James Simard", "takeaway": "yes"}}, {"type": "node", "id": 1707399374, "lat": 42.342181, "lon": -71.0704234, "tags": {"amenity": "cafe", "name": "South End Buttery"}}, {"type": "node", "id": 1718017588, "lat": 42.3458582, "lon": -71.0436805, "tags": {"addr:housenumber": "425", "addr:postcode": "02210", "addr:street": "Summer Street", "amenity": "cafe", "brand": "Starbucks", "brand:wikidata": "Q37158", "brand:wikipedia": "en:Starbucks", "cuisine": "coffee_shop", "name": "Starbucks", "official_name": "Starbucks Coffee", "phone": "+1 617 532 4600", "takeaway": "yes"}}, {"type": "node", "id": 1770588659, "lat": 42.3536887, "lon": -71.0638884, "tags": {"addr:city": "Boston", "addr:housenumber": "165", "addr:postcode": "02111", "addr:state": "MA", "addr:street": "Tremont Street", "amenity": "cafe", "cost:coffee": "$2.00", "internet_access": "no", "name": "Thinking Cup", "note": "location approximate", "website": "http://www.thinkingcup.com/"}}, {"type": "node", "id": 1914587762, "lat": 42.3389976, "lon": -71.0872848, "tags": {"amenity": "cafe", "brand": "Starbucks", "brand:wikidata": "Q37158", "brand:wikipedia": "en:Starbucks", "cuisine": "coffee_shop", "internet_access": "wlan", "internet_access:fee": "no", "name": "Starbucks", "official_name": "Starbucks Coffee", "outdoor_seating": "yes", "takeaway": "yes", "wheelchair": "yes"}}, {"type": "node", "id": 1914710908, "lat": 42.3386033, "lon": -71.0880875, "tags": {"amenity": "cafe", "name": "Argo Tea", "wheelchair": "yes"}}, {"type": "node", "id": 1914779406, "lat": 42.3416738, "lon": -71.086989, "tags": {"amenity": "cafe", "cuisine": "coffee_shop", "name": "Pavement Coffeehouse"}}, {"type": "node", "id": 1914792390, "lat": 42.3410601, "lon": -71.0875121, "tags": {"amenity": "cafe", "cuisine": "sandwich", "name": "Temptations Cafe"}}, {"type": "node", "id": 1938055432, "lat": 42.3499065, "lon": -71.0491411, "tags": {"addr:housenumber": "300", "addr:postcode": "02210", "addr:street": "Summer Street", "amenity": "cafe", "cuisine": "american", "internet_access": "wlan", "internet_access:fee": "no", "name": "Channel Cafe", "website": "http://channel-cafe.com/"}}, {"type": "node", "id": 1966000180, "lat": 42.3425352, "lon": -71.0651922, "tags": {"amenity": "cafe", "name": "Mohr & McPherson"}}, {"type": "node", "id": 1974048080, "lat": 42.3517977, "lon": -71.1192099, "tags": {"addr:housenumber": "957", "addr:street": "Commonwealth Avenue", "amenity": "cafe", "cuisine": "coffee_shop", "name": "Blue State Coffee", "website": "https://www.bluestatecoffee.com/", "wikidata": "Q4929919", "wikipedia": "en:Blue State Coffee"}}, {"type": "node", "id": 1975943681, "lat": 42.3214818, "lon": -71.0569268, "tags": {"addr:housenumber": "857", "addr:postcode": "02125", "addr:street": "Dorchester Avenue", "amenity": "cafe", "cuisine": "ice_cream", "name": "The Sugar Bowl", "opening_hours": "Mo-Th 06:00-14:00; Fr 06:00-14:00; Sa 08:00-15:00; Su 09:00-15:00"}}, {"type": "node", "id": 1976832138, "lat": 42.3495212, "lon": -71.0999346, "tags": {"addr:housenumber": "595", "addr:postcode": "02215", "addr:street": "Commonwealth Avenue", "amenity": "cafe", "brand": "Starbucks", "brand:wikidata": "Q37158", "brand:wikipedia": "en:Starbucks", "cuisine": "coffee_shop", "designation": "food&study", "internet_access": "wlan", "name": "Starbucks", "official_name": "Starbucks Coffee", "source": "experience", "takeaway": "yes", "website": "http://www.bu.edu/dining/where-to-eat/retail-dining/starbucks-at-smg/"}}, {"type": "node", "id": 1976956078, "lat": 42.3509315, "lon": -71.109173, "tags": {"addr:housename": "George Sherman Union", "amenity": "cafe", "cuisine": "burger", "name": "Rhett's"}}, {"type": "node", "id": 1977409949, "lat": 42.3493987, "lon": -71.1031365, "tags": {"amenity": "cafe", "brand": "Starbucks", "brand:wikidata": "Q37158", "brand:wikipedia": "en:Starbucks", "cuisine": "coffee_shop", "name": "Starbucks", "official_name": "Starbucks Coffee", "takeaway": "yes"}}, {"type": "node", "id": 1978951495, "lat": 42.349503, "lon": -71.0997679, "tags": {"amenity": "cafe", "cuisine": "sandwich", "name": "Bread Winners "}}, {"type": "node", "id": 1979657115, "lat": 42.3563867, "lon": -71.0693504, "tags": {"addr:city": "Boston", "addr:housenumber": "65-66", "addr:postcode": "02108", "addr:state": "MA", "addr:street": "Beacon Street", "air_conditioning": "yes", "amenity": "cafe", "bar": "no", "brand": "Starbucks", "brand:wikidata": "Q37158", "brand:wikipedia": "en:Starbucks", "cuisine": "coffee_shop", "delivery": "no", "internet_access": "wlan", "internet_access:fee": "no", "internet_access:ssid": "Starbucks WiFi", "name": "Starbucks", "official_name": "Starbucks Coffee", "opening_hours": "Mo-Fr 06:30-12:30", "outdoor_seating": "no", "payment:cash": "yes", "payment:credit_cards": "yes", "payment:debit_cards": "yes", "payment:mobile_app": "yes", "phone": "+1-617-742-2664", "reservation": "no", "takeaway": "yes", "website": "https://www.starbucks.com/store-locator/store/13567/starbucks-boston-common-65-66-beacon-boston-ma-021083530-us", "wheelchair": "yes"}}, {"type": "node", "id": 2095655591, "lat": 42.3348986, "lon": -71.033488}, {"type": "node", "id": 2095655593, "lat": 42.3349243, "lon": -71.0334879}, {"type": "node", "id": 2220121548, "lat": 42.3599778, "lon": -71.0547273}, {"type": "node", "id": 2220121549, "lat": 42.3599746, "lon": -71.0547587}, {"type": "node", "id": 2220121550, "lat": 42.359984, "lon": -71.0547604}, {"type": "node", "id": 2220121551, "lat": 42.3599518, "lon": -71.0547547}, {"type": "node", "id": 2220121552, "lat": 42.359955, "lon": -71.054723}, {"type": "node", "id": 2220121553, "lat": 42.3599449, "lon": -71.0547535}, {"type": "node", "id": 2220121554, "lat": 42.3599417, "lon": -71.0547846}, {"type": "node", "id": 2220121555, "lat": 42.3599715, "lon": -71.0547907}, {"type": "node", "id": 2220121556, "lat": 42.359946, "lon": -71.054817}, {"type": "node", "id": 2220121557, "lat": 42.3599684, "lon": -71.0548212}, {"type": "node", "id": 2220121558, "lat": 42.3599492, "lon": -71.054786}, {"type": "node", "id": 2220121561, "lat": 42.3599807, "lon": -71.0547924}, {"type": "node", "id": 2230915863, "lat": 42.3361605, "lon": -71.168293, "tags": {"amenity": "cafe", "cuisine": "coffee_shop", "internet_access": "yes", "name": "Hillside Cafe"}}, {"type": "node", "id": 2266605610, "lat": 42.3441058, "lon": -71.0284998}, {"type": "node", "id": 2266605622, "lat": 42.3444545, "lon": -71.02851}, {"type": "node", "id": 2295360232, "lat": 42.3216357, "lon": -71.1103151, "tags": {"addr:city": "Boston", "addr:housenumber": "403", "addr:postcode": "02130", "addr:street": "Centre Street", "addr:unit": "A", "amenity": "cafe", "cuisine": "italian", "name": "Caffe Aromi", "wifi": "free"}}, {"type": "node", "id": 2295978172, "lat": 42.3438689, "lon": -71.1622043, "tags": {"amenity": "cafe", "internet_access": "yes", "name": "Cafe 129"}}, {"type": "node", "id": 2350127260, "lat": 42.3419062, "lon": -71.083346, "tags": {"addr:city": "Boston", "addr:housenumber": "374", "addr:postcode": "02115", "addr:state": "MA", "addr:street": "Massachusetts Avenue", "air_conditioning": "yes", "amenity": "cafe", "internet_access": "wlan", "internet_access:fee": "no", "name": "Farmer Horse Coffee", "opening_hours": "Mo-Sa 07:00-20:00; Su 08:00-18:00", "outdoor_seating": "no", "payment:cash": "yes", "payment:credit_cards": "yes", "payment:debit_cards": "yes"}}, {"type": "node", "id": 2350127265, "lat": 42.3466618, "lon": -71.0876487, "tags": {"addr:city": "Boston", "addr:housenumber": "147", "addr:postcode": "02115", "addr:state": "MA", "addr:street": "Massachusetts Avenue", "amenity": "cafe", "brand": "Starbucks", "brand:wikidata": "Q37158", "brand:wikipedia": "en:Starbucks", "cuisine": "coffee_shop", "level": "0", "name": "Starbucks", "official_name": "Starbucks Coffee", "outdoor_seating": "no", "takeaway": "yes", "website": "https://www.starbucks.com/store-locator/store/17578/mass-avenue-at-havland-147-151-massachusetts-avenue-boston-ma-021152607-u"}}, {"type": "node", "id": 2350393279, "lat": 42.3485642, "lon": -71.0959729, "tags": {"addr:city": "Boston", "addr:housenumber": "500", "addr:postcode": "02215", "addr:state": "MA", "addr:street": "Commonwealth Avenue", "amenity": "cafe", "brand": "Starbucks", "brand:wikidata": "Q37158", "brand:wikipedia": "en:Starbucks", "cuisine": "coffee_shop", "internet_access": "wlan", "internet_access:fee": "no", "name": "Starbucks", "official_name": "Starbucks Coffee", "opening_hours": "Mo-Fr 07:00-19:00; Sa,Su 08:00-18:00", "opening_hours:covid19": "closed", "outdoor_seating": "yes", "phone": "+1-617-425-1941", "takeaway": "yes", "website": "https://www.starbucks.com/store-locator/store/114018"}}, {"type": "node", "id": 2369837832, "lat": 42.3385877, "lon": -71.1062405, "tags": {"addr:city": "Boston", "addr:housenumber": "364", "addr:postcode": "02115", "addr:state": "MA", "addr:street": "Brookline Avenue", "amenity": "cafe", "brand": "Starbucks", "brand:wikidata": "Q37158", "brand:wikipedia": "en:Starbucks", "cuisine": "coffee_shop", "name": "Starbucks", "official_name": "Starbucks Coffee", "opening_hours": "Mo-Fr 05:30-20:00", "operator": "Starbucks", "phone": "+16172772350", "takeaway": "yes", "website": "https://www.starbucks.com/store-locator/store/16003/"}}, {"type": "node", "id": 2375516562, "lat": 42.3377354, "lon": -71.1046597, "tags": {"addr:city": "Boston", "addr:housenumber": "283", "addr:postcode": "02115", "addr:state": "MA", "addr:street": "Longwood Avenue", "amenity": "cafe", "brand": "Starbucks", "brand:wikidata": "Q37158", "brand:wikipedia": "en:Starbucks", "cuisine": "coffee_shop", "name": "Starbucks", "official_name": "Starbucks Coffee", "opening_hours": "Mo-Fr 05:30-20:00; Sa-Su 06:00-19:00", "operator": "Starbucks", "phone": "+16172775202", "takeaway": "yes", "website": "https://www.starbucks.com/store-locator/store/16697/"}}, {"type": "node", "id": 2430572065, "lat": 42.3638817, "lon": -71.0545944, "tags": {"amenity": "cafe", "name": "Caff\u00e9 Pompei", "source": "survey"}}, {"type": "node", "id": 2430572066, "lat": 42.3640676, "lon": -71.054375, "tags": {"amenity": "cafe", "name": "Caff\u00e9 Vittoria", "source": "survey", "wikidata": "Q5017152", "wikipedia": "en:Caff\u00e9 Vittoria"}}, {"type": "node", "id": 2446048048, "lat": 42.3591431, "lon": -71.0504591, "tags": {"amenity": "cafe", "cuisine": "ice_cream", "name": "Ben & Jerry"}}, {"type": "node", "id": 2446048062, "lat": 42.3592074, "lon": -71.0513114, "tags": {"amenity": "cafe", "cuisine": "ice_cream", "name": "fooda"}}, {"type": "node", "id": 2458364528, "lat": 42.3442452, "lon": -71.101384, "tags": {"amenity": "cafe", "brand": "Starbucks", "brand:wikidata": "Q37158", "brand:wikipedia": "en:Starbucks", "cuisine": "coffee_shop", "name": "Starbucks", "official_name": "Starbucks Coffee", "takeaway": "yes", "wheelchair": "yes"}}, {"type": "node", "id": 2687181596, "lat": 42.3632641, "lon": -71.0246719, "tags": {"amenity": "cafe", "brand": "Starbucks", "brand:wikidata": "Q37158", "brand:wikipedia": "en:Starbucks", "cuisine": "coffee_shop", "name": "Starbucks", "official_name": "Starbucks Coffee", "opening_hours": "PH,Mo-Su 05:00-13:00", "takeaway": "yes"}}, {"type": "node", "id": 2690368424, "lat": 42.3664737, "lon": -71.0547278, "tags": {"amenity": "cafe", "name": "Lil Italy"}}, {"type": "node", "id": 2694380064, "lat": 42.3065707, "lon": -71.1072478, "tags": {"addr:city": "Jamaica Plain", "addr:housenumber": "3484", "addr:postcode": "02130", "addr:state": "MA", "addr:street": "Washington Street", "amenity": "cafe", "name": "Doyle's Cafe", "wikidata": "Q5303728"}}, {"type": "node", "id": 2700809522, "lat": 42.361007, "lon": -71.0665202, "tags": {"addr:city": "Boston", "addr:housenumber": "222", "addr:postcode": "02114", "addr:street": "Cambridge Street", "amenity": "cafe", "brand": "Starbucks", "brand:wikidata": "Q37158", "brand:wikipedia": "en:Starbucks", "cuisine": "coffee_shop", "internet_access": "yes", "name": "Starbucks", "official_name": "Starbucks Coffee", "opening_hours": "Mo-Fr 05:30-21:00; Sa-Su 06:00-21:00", "takeaway": "yes", "wheelchair": "yes"}}, {"type": "node", "id": 3010293413, "lat": 42.3147663, "lon": -71.114369, "tags": {"addr:housenumber": "7", "addr:street": "Pond Street", "amenity": "cafe", "name": "7 Pond Coffee Bar", "opening_hours": "Mo-Fr 06:30-19:00; Sa-Su 07:30-19:00", "phone": "+1 617 524-7663", "wheelchair": "no"}}, {"type": "node", "id": 3185778765, "lat": 42.3061917, "lon": -71.1076208}, {"type": "node", "id": 3214091551, "lat": 42.3562295, "lon": -71.0619738, "tags": {"amenity": "cafe", "cost:coffee": "$1.90", "name": "360 Cafe"}}, {"type": "node", "id": 3214648820, "lat": 42.353244, "lon": -71.0576648, "tags": {"amenity": "cafe", "brand": "Starbucks", "brand:wikidata": "Q37158", "brand:wikipedia": "en:Starbucks", "cost:coffee": "$1.75", "cuisine": "coffee_shop", "diet:vegetarian": "yes", "name": "Starbucks", "official_name": "Starbucks Coffee", "opening_hours:signed": "no", "takeaway": "yes"}}, {"type": "node", "id": 3217389586, "lat": 42.3534422, "lon": -71.0623116, "tags": {"amenity": "cafe", "brand": "Caff\u00e8 Nero", "brand:wikidata": "Q675808", "brand:wikipedia": "en:Caff\u00e8 Nero", "cost:coffee": "$1.85", "cuisine": "coffee_shop", "name": "Caff\u00e8 Nero", "takeaway": "yes"}}, {"type": "node", "id": 3220580402, "lat": 42.3542405, "lon": -71.0619504, "tags": {"amenity": "cafe", "cost:coffee": "$1.85", "name": "Boston Common Coffee Company"}}, {"type": "node", "id": 3230804271, "lat": 42.3555941, "lon": -71.0611045, "tags": {"amenity": "cafe", "brand": "Starbucks", "brand:wikidata": "Q37158", "brand:wikipedia": "en:Starbucks", "cost:coffee": "$1.75", "cuisine": "coffee_shop", "name": "Starbucks", "official_name": "Starbucks Coffee", "takeaway": "yes"}}, {"type": "node", "id": 3487861627, "lat": 42.3606719, "lon": -71.0184493, "tags": {"amenity": "cafe", "cuisine": "coffee_shop", "name": "Espressamente Illy"}}, {"type": "node", "id": 3487861641, "lat": 42.3621618, "lon": -71.0196089, "tags": {"amenity": "cafe", "brand": "Starbucks", "brand:wikidata": "Q37158", "brand:wikipedia": "en:Starbucks", "cuisine": "coffee_shop", "name": "Starbucks", "official_name": "Starbucks Coffee", "takeaway": "yes"}}, {"type": "node", "id": 3577174750, "lat": 42.3643055, "lon": -71.0541088, "tags": {"amenity": "cafe", "name": "Caff\u00e9 dello Sport"}}, {"type": "node", "id": 3577728484, "lat": 42.3632334, "lon": -71.054827, "tags": {"amenity": "cafe", "name": "Caff\u00e8 Paradiso"}}, {"type": "node", "id": 3624079992, "lat": 42.3569029, "lon": -71.0541391, "tags": {"amenity": "cafe", "name": "Oliver Street Cafe"}}, {"type": "node", "id": 3624083294, "lat": 42.353327, "lon": -71.0529532, "tags": {"amenity": "cafe", "name": "Sorelle", "opening_hours": "Mo-Fr 06:30-18:00; Sa,Su 08:00-16:00"}}, {"type": "node", "id": 3671129808, "lat": 42.3372256, "lon": -71.0356451, "tags": {"amenity": "cafe", "cuisine": "ice_cream", "name": "Molly Moo's"}}, {"type": "node", "id": 3671129809, "lat": 42.3355031, "lon": -71.0352669, "tags": {"amenity": "cafe", "cuisine": "sandwich", "name": "Boston Bagel Company"}}, {"type": "node", "id": 3787902940, "lat": 42.3397234, "lon": -71.0939601, "tags": {"amenity": "cafe", "name": "New American Cafe"}}, {"type": "node", "id": 3788899983, "lat": 42.3515263, "lon": -71.0581273, "tags": {"addr:city": "Boston", "addr:housenumber": "108", "addr:state": "MA", "addr:street": "Lincoln Street", "amenity": "cafe", "name": "Gracenote Coffee Roasters", "opening_hours": "Mo-Fr 07:00-16:30; Sa 09:00-16:00; Su 09:00-15:00"}}, {"type": "node", "id": 3907291857, "lat": 42.2844845, "lon": -71.0644422, "tags": {"addr:city": "Boston", "addr:housenumber": "1906", "addr:postcode": "02124", "addr:state": "MA", "addr:street": "Dorchester Avenue", "amenity": "cafe", "cuisine": "coffee_shop", "internet_access": "wlan", "name": "Flat Black"}}, {"type": "node", "id": 3937039206, "lat": 42.3636985, "lon": -71.0543744, "tags": {"amenity": "cafe", "cuisine": "pizza", "name": "Galleria Umberto"}}, {"type": "node", "id": 3938369757, "lat": 42.376533, "lon": -71.0655523, "tags": {"addr:housenumber": "2", "amenity": "cafe", "name": "Zume's Coffee House"}}, {"type": "node", "id": 4022994572, "lat": 42.3587422, "lon": -71.1543435, "tags": {"amenity": "cafe", "brand": "Starbucks", "brand:wikidata": "Q37158", "brand:wikipedia": "en:Starbucks", "cuisine": "coffee_shop", "name": "Starbucks", "official_name": "Starbucks Coffee", "takeaway": "yes"}}, {"type": "node", "id": 4033939476, "lat": 42.3109842, "lon": -71.1147472, "tags": {"addr:housenumber": "733", "addr:street": "Centre Street", "amenity": "cafe", "contact:phone": "+1 617 477-3466", "name": "Caff\u00e8 Nero", "opening_hours": "Mo-Su 07:00-21:00", "wheelchair": "yes"}}, {"type": "node", "id": 4037635226, "lat": 42.3079697, "lon": -71.1157177, "tags": {"amenity": "cafe", "name": "Fiore's Bakery", "opening_hours": "Mo-Fr 07:00-18:00; Sa-Su 08:00-18:00", "phone": "+1 617 524-9200"}}, {"type": "node", "id": 4045929118, "lat": 42.3002732, "lon": -71.113132, "tags": {"addr:housenumber": "3710", "addr:street": "Washington Street", "amenity": "cafe", "cuisine": "tapas;coffee;local;organic;regional;cafe", "internet_access": "yes", "internet_access:fee": "no", "name": "Brassica Kitchen + Cafe", "opening_hours": "Mo-Fr 06:00-16:00; Sa, Su 08:00-16:00; Tu-Sa 17:30-23:00", "outdoor_seating": "yes", "payment:cash": "yes", "payment:diners_club": "yes", "payment:discover_card": "yes", "payment:visa": "yes", "phone": "+1 617 477-4519", "shop": "coffee", "smoking": "no", "website": "https://www.brassicakitchen.com/", "wheelchair": "limited"}}, {"type": "node", "id": 4045929121, "lat": 42.3006707, "lon": -71.1127463, "tags": {"addr:housenumber": "3696", "addr:street": "Washington Street", "amenity": "cafe", "name": "Forest Hills Diner", "opening_hours": "Mo-Fr 06:30-15:00; Sa 08:00-13:00", "phone": "+1 617 522-8242", "website": "http://theforesthillsdiner.com"}}, {"type": "node", "id": 4050865533, "lat": 42.3130254, "lon": -71.1139436, "tags": {"addr:housenumber": "654", "addr:street": "Centre Street", "amenity": "cafe", "cuisine": "lebanese", "diet:vegan": "yes", "diet:vegetarian": "yes", "email": "info@cafebeirutjp.com", "name": "Cafe Beirut", "opening_hours": "Mo-Su 11:00-22:00", "payment:levelup": "yes", "payment:mastercard": "yes", "payment:visa": "yes", "phone": "+1 617 522-7264", "takeaway": "yes", "wheelchair": "yes"}}, {"type": "node", "id": 4058896652, "lat": 42.3099795, "lon": -71.1155043, "tags": {"addr:housenumber": "779", "addr:street": "Centre Street", "amenity": "cafe", "name": "Kamado", "opening_hours": "Mo-Th,Su 11:30-21:30; Fr-Sa 11:30-22:00", "payment:diners_club": "yes", "payment:discover_card": "yes", "payment:mastercard": "no", "payment:visa": "yes", "phone": "+1 617 522-0277", "website": "http://kamadosuperfusionma.com"}}, {"type": "node", "id": 4073622924, "lat": 42.3440917, "lon": -71.0777133, "tags": {"addr:city": "Boston", "addr:housenumber": "429", "addr:postcode": "02116", "addr:street": "Columbus Avenue", "amenity": "cafe", "cuisine": "diner", "name": "Charlie's Sandwich Shoppe", "wikidata": "Q5084406"}}, {"type": "node", "id": 4074813886, "lat": 42.3521774, "lon": -71.0559949, "tags": {"amenity": "cafe", "brand": "Starbucks", "brand:wikidata": "Q37158", "brand:wikipedia": "en:Starbucks", "cuisine": "coffee_shop", "name": "Starbucks", "official_name": "Starbucks Coffee", "takeaway": "yes"}}, {"type": "node", "id": 4074813887, "lat": 42.3522389, "lon": -71.0644358, "tags": {"addr:city": "Boston", "addr:housenumber": "62", "addr:postcode": "02116", "addr:state": "MA", "addr:street": "Boylston Street", "amenity": "cafe", "brand": "Starbucks", "brand:wikidata": "Q37158", "brand:wikipedia": "en:Starbucks", "cuisine": "coffee_shop", "internet_access": "wlan", "internet_access:fee": "no", "name": "Starbucks", "official_name": "Starbucks Coffee", "outdoor_seating": "no", "phone": "+1-617-338-0067", "takeaway": "yes", "website": "https://www.starbucks.com/store-locator/store/13538/192-tremont-62-boylston-street-boston-ma-021164799-us"}}, {"type": "node", "id": 4085358772, "lat": 42.3440897, "lon": -71.029512}, {"type": "node", "id": 4085358774, "lat": 42.3444384, "lon": -71.0295222}, {"type": "node", "id": 4108532861, "lat": 42.3738273, "lon": -71.0389491}, {"type": "node", "id": 4108532863, "lat": 42.3738292, "lon": -71.0387625}, {"type": "node", "id": 4108532864, "lat": 42.3738436, "lon": -71.0387625}, {"type": "node", "id": 4108532865, "lat": 42.3738436, "lon": -71.0387706}, {"type": "node", "id": 4108532866, "lat": 42.3738619, "lon": -71.0387706}, {"type": "node", "id": 4123603492, "lat": 42.34934, "lon": -71.1550044, "tags": {"addr:housenumber": "395", "addr:street": "Washington Street", "amenity": "cafe", "name": "Daniel's Bakery", "opening_hours": "Mo-Fr 06:00-18:00; Sa 06:00-17:00"}}, {"type": "node", "id": 4123603493, "lat": 42.3493335, "lon": -71.1547768, "tags": {"addr:housenumber": "389", "addr:street": "Washington Street", "amenity": "cafe", "name": "Little Pizza King", "opening_hours": "Mo-Th 11:00-23:00; Fr-Sa 11:00-24:00; Su 12:00-23:00"}}, {"type": "node", "id": 4123617192, "lat": 42.3487435, "lon": -71.1598541, "tags": {"addr:housenumber": "470", "addr:street": "Washington Street", "amenity": "cafe", "internet_access": "wlan", "name": "Starbucks", "opening_hours": "Mo-Fr 05:30-21:00; Sa-Su 06:00-09:45, 17:15-21:00", "phone": "+16177872430"}}, {"type": "node", "id": 4123660089, "lat": 42.348763, "lon": -71.1590513, "tags": {"addr:housenumber": "464", "addr:street": "Washington Street", "amenity": "cafe", "name": "Domino's pizza", "opening_hours": "Su-We 10:30-01:00; Th-Sa 10:30-14:20,22:10-02:00"}}, {"type": "node", "id": 4123660090, "lat": 42.3491997, "lon": -71.1629707, "tags": {"addr:housenumber": "533", "addr:street": "Washington Street", "amenity": "cafe", "name": "Papa John's Pizza", "opening_hours": "Su-Th 11:00-01:00; Fr-Sa 11:00-03:00"}}, {"type": "node", "id": 4123660189, "lat": 42.3493421, "lon": -71.1567888, "tags": {"addr:housenumber": "433", "addr:street": "Washington Street", "amenity": "cafe", "name": "Bangkok Bistro Thai", "opening_hours": "Fr 11:30-23:00; Mo-Th 11:00-22:00; Sa-Su 12:00-23:00"}}, {"type": "node", "id": 4123660289, "lat": 42.3493367, "lon": -71.1540759, "tags": {"addr:housenumber": "371", "addr:street": "Washington Street", "amenity": "cafe", "name": "Jim's Deli & Restaurant", "opening_hours": "Mo-Fr 06:00-21:00; Sa-Su 07:00-15:00"}}, {"type": "node", "id": 4209170410, "lat": 42.3567772, "lon": -71.053804, "tags": {"addr:city": "Boston", "addr:housenumber": "260", "addr:postcode": "02110", "addr:state": "MA", "addr:street": "Franklin Street", "amenity": "cafe", "name": "Flat Black Coffee", "opening_hours": "Mo-Fr 07:00-17:00"}}, {"type": "node", "id": 4209170411, "lat": 42.3579932, "lon": -71.0538281, "tags": {"amenity": "cafe", "name": "Flat Black Coffee"}}, {"type": "node", "id": 4286763393, "lat": 42.3147028, "lon": -71.1039441, "tags": {"addr:city": "Boston", "addr:housenumber": "284", "addr:postcode": "02130", "addr:state": "MA", "addr:street": "Amory Street", "amenity": "cafe", "cuisine": "coffee_shop", "diet:vegan": "yes", "diet:vegetarian": "yes", "internet_access": "yes", "name": "Ula Cafe", "opening_hours": "Mo-Fr 07:00-19:00; Sa 08:00-19:00; Su 08:00-18:00", "wheelchair": "yes"}}, {"type": "node", "id": 4296990590, "lat": 42.357875, "lon": -71.0705123, "tags": {"amenity": "cafe", "name": "Tatte", "opening_hours": "Mo-Su 07:00-20:00", "outdoor_seating": "yes"}}, {"type": "node", "id": 4338735891, "lat": 42.35477, "lon": -71.0614439, "tags": {"amenity": "cafe", "name": "George Howell Cafe"}}, {"type": "node", "id": 4338737591, "lat": 42.3518284, "lon": -71.0749192, "tags": {"addr:city": "Boston", "addr:housenumber": "85", "addr:postcode": "02116", "addr:state": "MA", "addr:street": "Newbury Street", "amenity": "cafe", "email": "info@thinkingcup.com", "level": "0", "name": "Thinking Cup", "opening_hours:covid19": "off", "outdoor_seating": "yes", "website": "http://thinkingcup.com/", "wheelchair": "no"}}, {"type": "node", "id": 4362109596, "lat": 42.3568397, "lon": -71.0575833, "tags": {"amenity": "cafe", "cuisine": "sandwich", "name": "Milk Street Cafe", "opening_hours": "07:00-15:00"}}, {"type": "node", "id": 4378381763, "lat": 42.3589008, "lon": -71.0705692, "tags": {"addr:city": "Boston", "addr:housenumber": "97", "addr:postcode": "02114", "addr:state": "MA", "addr:street": "Charles Street", "amenity": "cafe", "brand": "Starbucks", "brand:wikidata": "Q37158", "brand:wikipedia": "en:Starbucks", "cuisine": "coffee_shop", "internet_access": "wlan", "internet_access:fee": "no", "name": "Starbucks", "official_name": "Starbucks Coffee", "opening_hours:signed": "no", "outdoor_seating": "no", "phone": "+1-617-227-3812", "takeaway": "yes", "website": "https://www.starbucks.com/store-locator/store/15879/charles-street-97-charles-street-boston-ma-021143251-us"}}, {"type": "node", "id": 4406334871, "lat": 42.3484433, "lon": -71.1341349, "tags": {"addr:city": "Boston", "addr:housenumber": "1304", "addr:postcode": "02134", "addr:state": "MA", "addr:street": "Commonwealth Avenue", "amenity": "cafe", "brand": "Starbucks", "brand:wikidata": "Q37158", "brand:wikipedia": "en:Starbucks", "cuisine": "coffee_shop", "internet_access": "yes", "name": "Starbucks", "official_name": "Starbucks Coffee", "opening_hours": "Mo-Fr 05:30-21:00; Sa-Su 06:00-21:00", "phone": "+16175661074", "takeaway": "yes", "website": "https://www.starbucks.com/store-locator/store/1007718/"}}, {"type": "node", "id": 4454436306, "lat": 42.3460539, "lon": -71.081695, "tags": {"addr:city": "Boston", "addr:housenumber": "800", "addr:postcode": "02116", "addr:state": "MA", "addr:street": "Boylston Street", "addr:unit": "Suite 179", "amenity": "cafe", "brand": "Starbucks", "brand:wikidata": "Q37158", "brand:wikipedia": "en:Starbucks", "changing_table": "yes", "cuisine": "coffee_shop", "diet:vegan": "no", "diet:vegetarian": "yes", "drinking_water": "yes", "internet_access": "yes", "internet_access:fee": "no", "name": "Starbucks", "official_name": "Starbucks Coffee", "outdoor_seating": "no", "takeaway": "yes", "website": "https://www.barnesandnoble.com/h/cafe"}}, {"type": "node", "id": 4454580332, "lat": 42.3582297, "lon": -71.0577143, "tags": {"amenity": "cafe", "brand": "Starbucks", "brand:wikidata": "Q37158", "brand:wikipedia": "en:Starbucks", "cuisine": "coffee_shop", "diet:vegetarian": "yes", "name": "Starbucks", "official_name": "Starbucks Coffee", "takeaway": "yes"}}, {"type": "node", "id": 4454893297, "lat": 42.3631494, "lon": -71.0563272, "tags": {"amenity": "cafe", "brand": "Peet's Coffee", "brand:wikidata": "Q1094101", "brand:wikipedia": "en:Peet's Coffee", "changing_table": "yes", "cuisine": "coffee_shop", "internet_access": "wlan", "internet_access:fee": "no", "name": "Peet's Coffee", "outdoor_seating": "sidewalk", "takeaway": "yes"}}, {"type": "node", "id": 4622804589, "lat": 42.3640446, "lon": -71.0555113, "tags": {"addr:housenumber": "105", "addr:postcode": "02113", "addr:street": "Salem Street", "amenity": "cafe", "name": "Polcari's Coffee", "opening_hours": "Mo-Fr 10:00-18:30; Sa 09:00-18:00", "phone": "6172270786", "website": "https://polcariscoffee.com/"}}, {"type": "node", "id": 4624387529, "lat": 42.3452434, "lon": -71.0747204, "tags": {"amenity": "cafe", "name": "Greystone Cafe", "opening_hours": "Mo-Su 07:00-16:00", "website": "https://www.greystonecafe.com/"}}, {"type": "node", "id": 4630571055, "lat": 42.3507557, "lon": -71.1091552, "tags": {"addr:city": "Boston", "addr:housenumber": "775", "addr:postcode": "02215", "addr:state": "MA", "addr:street": "Commonwealth Avenue", "amenity": "cafe", "brand": "Starbucks", "brand:wikidata": "Q37158", "brand:wikipedia": "en:Starbucks", "cuisine": "coffee_shop", "name": "Starbucks", "official_name": "Starbucks Coffee", "phone": "+16173532991", "takeaway": "yes", "website": "https://www.starbucks.com/store-locator/store/18455"}}, {"type": "node", "id": 4722603141, "lat": 42.3425067, "lon": -71.0568254, "tags": {"addr:housenumber": "11", "addr:postcode": "02127", "addr:street": "West Broadway", "amenity": "cafe", "brand": "Starbucks", "brand:wikidata": "Q37158", "brand:wikipedia": "en:Starbucks", "cuisine": "coffee_shop", "internet_access": "wlan", "name": "Starbucks", "official_name": "Starbucks Coffee", "opening_hours": "Mo-Fr 04:30-22:00; Sa-Su 06:00-21:00", "outdoor_seating": "no", "phone": "+1 617 946 4653", "takeaway": "yes"}}, {"type": "node", "id": 4722621051, "lat": 42.3354982, "lon": -71.0355967, "tags": {"addr:city": "South Boston", "addr:housenumber": "749", "addr:postcode": "02127", "addr:state": "MA", "addr:street": "East Broadway", "amenity": "cafe", "brand": "Starbucks", "brand:wikidata": "Q37158", "brand:wikipedia": "en:Starbucks", "cuisine": "coffee_shop", "name": "Starbucks", "official_name": "Starbucks Coffee", "opening_hours": "Mo-Fr 06:00-22:00, Sa-Su 06:00-21:00", "phone": "+1 857 337 5110", "takeaway": "yes", "website": "https://www.starbucks.com/store-locator/store/1014608"}}, {"type": "node", "id": 4727366615, "lat": 42.3503881, "lon": -71.131582, "tags": {"amenity": "cafe", "name": "Pavement Coffeehouse"}}, {"type": "node", "id": 4727567593, "lat": 42.3531286, "lon": -71.1316808, "tags": {"addr:city": "Allston", "addr:housenumber": "145", "addr:postcode": "02134", "addr:state": "MA", "addr:street": "Brighton Avenue", "amenity": "cafe", "brand": "One Zo", "brand:website": "https://www.onezo.us/", "cuisine": "bubble_tea", "name": "One Zo"}}, {"type": "node", "id": 4727567610, "lat": 42.3507149, "lon": -71.1309101, "tags": {"addr:housenumber": "1217A", "addr:street": "Commonwealth Avenue", "amenity": "cafe", "cuisine": "hookah", "name": "Habibi's Lounge"}}, {"type": "node", "id": 4728935493, "lat": 42.3522064, "lon": -71.1320271, "tags": {"addr:city": "Allston", "addr:housenumber": "131", "addr:postcode": "02134", "addr:state": "MA", "addr:street": "Harvard Avenue", "amenity": "cafe", "brand": "Kung Fu Tea", "brand:website": "https://www.kungfutea.com/", "brand:wikidata": "Q66023886", "cuisine": "bubble_tea", "name": "Kung Fu Tea", "opening_hours": "Su-We 11:00-21:00; Th-Sa 11:00-23:00", "phone": "+16177833388", "takeaway": "yes"}}, {"type": "node", "id": 4757957508, "lat": 42.3626301, "lon": -71.0194191, "tags": {"amenity": "cafe", "brand": "Starbucks", "brand:wikidata": "Q37158", "brand:wikipedia": "en:Starbucks", "cuisine": "coffee_shop", "name": "Starbucks", "name:en": "Starbucks", "official_name": "Starbucks Coffee", "takeaway": "yes"}}, {"type": "node", "id": 4786793693, "lat": 42.3471604, "lon": -71.0790239, "tags": {"addr:city": "Boston", "addr:housenumber": "110", "addr:postcode": "02116", "addr:state": "MA", "addr:street": "Huntington Avenue", "amenity": "cafe", "brand": "Starbucks", "brand:wikidata": "Q37158", "brand:wikipedia": "en:Starbucks", "cuisine": "coffee_shop", "internet_access": "wlan", "internet_access:fee": "no", "level": "1", "name": "Starbucks", "official_name": "Starbucks Coffee", "outdoor_seating": "no", "takeaway": "yes"}}, {"type": "node", "id": 4786907864, "lat": 42.34924, "lon": -71.0790061, "tags": {"addr:city": "Boston", "addr:housenumber": "700", "addr:postcode": "02116", "addr:state": "MA", "addr:street": "Boylston Street", "air_conditioning": "yes", "amenity": "cafe", "bar": "no", "email": "info@newsfeedcafe.com", "internet_access": "wlan", "internet_access:fee": "no", "level": "0", "name": "Newsfeed Cafe", "outdoor_seating": "no", "phone": "+1-617-357-7333"}}, {"type": "node", "id": 4803704454, "lat": 42.3516552, "lon": -71.0669183, "tags": {"amenity": "cafe", "brand": "Starbucks", "brand:wikidata": "Q37158", "brand:wikipedia": "en:Starbucks", "cuisine": "coffee_shop", "name": "Starbucks", "official_name": "Starbucks Coffee", "takeaway": "yes"}}, {"type": "node", "id": 4840076429, "lat": 42.3648671, "lon": -71.0602846, "tags": {"amenity": "cafe", "cuisine": "coffee_shop", "name": "Boston Common Coffee Co."}}, {"type": "node", "id": 4840220304, "lat": 42.3643119, "lon": -71.0596665, "tags": {"addr:housenumber": "83", "addr:street": "Canal Street", "amenity": "cafe", "cuisine": "sandwich", "name": "Mulligans", "opening_hours": "Mo-Fr 08:30-15:30", "phone": "+16172481520", "website": "http://www.mulligansdeli.com"}}, {"type": "node", "id": 4840220308, "lat": 42.3643534, "lon": -71.0597161, "tags": {"amenity": "cafe", "cuisine": "italian", "name": "Rustico", "phone": "+16177428770"}}, {"type": "node", "id": 4840220309, "lat": 42.3642532, "lon": -71.0595885, "tags": {"addr:housenumber": "77", "addr:street": "Canal Street", "amenity": "cafe", "cuisine": "sandwich", "name": "Bonne Chance Caf\u00e8", "phone": "+16177423115"}}, {"type": "node", "id": 4887036105, "lat": 42.3471311, "lon": -71.0988367, "tags": {"addr:city": "Boston", "addr:housenumber": "61", "addr:postcode": "02215", "addr:state": "MA", "addr:street": "Brookline Avenue", "amenity": "cafe", "name": "Fenway Cafe", "source": "Bing"}}, {"type": "node", "id": 4971417627, "lat": 42.3611819, "lon": -71.0173336, "tags": {"amenity": "cafe", "brand": "Peet's Coffee", "brand:wikidata": "Q1094101", "brand:wikipedia": "en:Peet's Coffee", "cuisine": "coffee_shop", "name": "Peet's Coffee", "takeaway": "yes"}}, {"type": "node", "id": 4996456161, "lat": 42.329941, "lon": -71.0834291, "tags": {"addr:city": "Boston", "addr:housenumber": "15", "addr:postcode": "02119", "addr:state": "MA", "addr:street": "Warren Street", "amenity": "cafe", "cuisine": "coffee_shop;sandwich", "internet_access": "yes", "internet_access:fee": "no", "name": "Dudley Cafe", "outdoor_seating": "yes"}}, {"type": "node", "id": 5231581702, "lat": 42.3518743, "lon": -71.0628615, "tags": {"addr:housenumber": "665", "addr:street": "Washington Street", "amenity": "cafe", "cuisine": "coffee_shop", "internet_access": "wlan", "name": "Jaho Coffee Roaster & Wine Bar", "opening_hours": "Mo-Th 06:30-23:00; Fr 06:30-24:00; Sa 07:00-24:00; Su 07:00-23:00", "phone": "857 233 4094", "website": "http://jaho.com"}}, {"type": "node", "id": 5284961911, "lat": 42.3438619, "lon": -71.0997454, "tags": {"addr:city": "Boston", "addr:housenumber": "1352", "addr:postcode": "02115", "addr:state": "MA", "addr:street": "Boylston Street", "amenity": "cafe", "cuisine": "dessert;coffee_shop", "name": "Tatte Bakery & Cafe", "opening_hours": "Mo-Fr 07:00-20:00; Sa 08:00-20:00; Su 08:00-19:00", "outdoor_seating": "yes"}}, {"type": "node", "id": 5284961912, "lat": 42.3443088, "lon": -71.0997963, "tags": {"addr:city": "Boston", "addr:housenumber": "1341", "addr:postcode": "02215", "addr:state": "MA", "addr:street": "Boylston Street", "amenity": "cafe", "brand": "Starbucks", "brand:wikidata": "Q37158", "brand:wikipedia": "en:Starbucks", "cuisine": "coffee_shop", "name": "Starbucks", "official_name": "Starbucks Coffee", "takeaway": "yes"}}, {"type": "node", "id": 5380551122, "lat": 42.3672101, "lon": -71.0166958, "tags": {"amenity": "cafe", "brand": "Starbucks", "brand:wikidata": "Q37158", "brand:wikipedia": "en:Starbucks", "cuisine": "coffee_shop", "name": "Starbucks", "official_name": "Starbucks Coffee", "takeaway": "yes"}}, {"type": "node", "id": 5380559021, "lat": 42.3660567, "lon": -71.0152102, "tags": {"amenity": "cafe", "brand": "Starbucks", "brand:wikidata": "Q37158", "brand:wikipedia": "en:Starbucks", "cuisine": "coffee_shop", "name": "Starbucks", "official_name": "Starbucks Coffee", "takeaway": "yes"}}, {"type": "node", "id": 5398657321, "lat": 42.3554274, "lon": -71.0622593, "tags": {"addr:housenumber": "26", "addr:postcode": "02108", "addr:street": "Temple Place", "amenity": "cafe", "cuisine": "breakfast", "internet_access": "wlan", "name": "Cafe 26", "opening_hours": "Mo-Sa 07:00-19:00; Su 07:00-20:00", "phone": "6172922626", "website": "http://cafe26boston.com"}}, {"type": "node", "id": 5749774107, "lat": 42.3580896, "lon": -71.057757, "tags": {"amenity": "cafe", "brand": "Starbucks", "brand:wikidata": "Q37158", "brand:wikipedia": "en:Starbucks", "cuisine": "coffee_shop", "name": "Starbucks;Ten Thousand Villages", "official_name": "Starbucks Coffee", "opening_hours": "Mo-Sa 10:00-19:00; Su 12:00-18:00", "opening_hours:signed": "no", "shop": "furniture", "takeaway": "yes"}}, {"type": "node", "id": 5749774110, "lat": 42.3585462, "lon": -71.0577196, "tags": {"addr:housenumber": "1-1A", "addr:street": "State Street", "amenity": "cafe", "name": "The Well", "opening_hours": "Mo-Fr 07:00-18:00; Sa 10:00-17:00", "website": "www.thewellcoffeehouse.com"}}, {"type": "node", "id": 5749774112, "lat": 42.3583415, "lon": -71.0581787, "tags": {"addr:housenumber": "201", "addr:street": "Washington Street", "amenity": "cafe", "cuisine": "coffee; bakery", "name": "Tatte Bakery & Cafe", "opening_hours": "Mo-Fr 07:00-20:00; Sa 08:00-18:00; Su 08:00-16:00"}}, {"type": "node", "id": 5782065157, "lat": 42.3393295, "lon": -71.0951349, "tags": {"amenity": "cafe", "name": "Taste cafe & wine bar"}}, {"type": "node", "id": 5810390060, "lat": 42.3530249, "lon": -71.0571274, "tags": {"addr:housenumber": "125", "addr:street": "Summer Street", "amenity": "cafe", "name": "KoHi"}}, {"type": "node", "id": 5827030423, "lat": 42.3551174, "lon": -71.0597637, "tags": {"amenity": "cafe", "brand": "Caff\u00e8 Nero", "brand:wikidata": "Q675808", "brand:wikipedia": "en:Caff\u00e8 Nero", "cuisine": "coffee_shop", "name": "Caff\u00e8 Nero", "takeaway": "yes"}}, {"type": "node", "id": 5838646485, "lat": 42.3559015, "lon": -71.0656488, "tags": {"amenity": "cafe", "name": "Frog Pond Caf\u00e9"}}, {"type": "node", "id": 5861990478, "lat": 42.3560643, "lon": -71.0545466, "tags": {"addr:city": "Boston", "addr:housenumber": "225", "addr:postcode": "02110", "addr:state": "MA", "addr:street": "Franklin Street", "amenity": "cafe", "cuisine": "coffee_shop", "name": "Intelligentsia", "opening_hours": "Mo-Fr 06:30-18:00, Sa 07:00-16:00", "payment:credit_cards": "yes", "phone": "857-707-3377"}}, {"type": "node", "id": 5861990479, "lat": 42.3572653, "lon": -71.0574318, "tags": {"addr:city": "Boston", "addr:housenumber": "121", "addr:postcode": "02109", "addr:state": "MA", "addr:street": "Devonshire Street", "amenity": "cafe", "cuisine": "coffee_shop", "name": "Render Coffee", "opening_hours": "Mo-Fr 07:00-19:00, Sa-Su 08:00-15:00", "phone": "+1-617-401-2421"}}, {"type": "node", "id": 5913703287, "lat": 42.3494538, "lon": -71.0822575, "tags": {"addr:housenumber": "240A", "addr:postcode": "02116", "addr:street": "Newbury Street", "amenity": "cafe", "name": "Caf\u00e9 Susu by Suitsupply", "opening_hours": "Mo-Sa 10:00-20:00; Su 12:00-18:00", "phone": "+1 617-249-7821", "website": "https://us.suitsupply.com/"}}, {"type": "node", "id": 5972920982, "lat": 42.3522994, "lon": -71.0437107, "tags": {"amenity": "cafe", "name": "Sorelle"}}, {"type": "node", "id": 6005267193, "lat": 42.3011294, "lon": -71.059742, "tags": {"addr:city": "Dorchester", "addr:housenumber": "1448", "addr:postcode": "02122", "addr:state": "MA", "addr:street": "Dorchester Avenue", "amenity": "cafe", "cuisine": "coffee_shop;sandwich;bakery", "email": "dorchesterhomestead@gmail.com", "internet_access": "wlan", "internet_access:fee": "no", "name": "Homestead bakery & cafe", "opening_hours": "\"Closed during the pandemic\"", "outdoor_seating": "no", "phone": "+1-617-533-7585", "website": "https://dorchesterhomestead.com/"}}, {"type": "node", "id": 6175264545, "lat": 42.380137, "lon": -71.0272074, "tags": {"amenity": "cafe", "cuisine": "coffee_shop", "name": "Melo's Cafe"}}, {"type": "node", "id": 6181692218, "lat": 42.3488864, "lon": -71.0844124, "tags": {"addr:city": "Boston", "addr:housenumber": "286", "addr:postcode": "02115", "addr:state": "MA", "addr:street": "Newbury Street", "amenity": "cafe", "cuisine": "coffee_shop", "internet_access": "yes", "name": "Pavement Coffeehouse", "outdoor_seating": "yes", "phone": "+1-617-859-9515", "website": "https://pavementcoffeehouse.com/"}}, {"type": "node", "id": 6230710706, "lat": 42.3400383, "lon": -71.0905041, "tags": {"amenity": "cafe", "cuisine": "bakery;coffee_shop", "name": "Tatte"}}, {"type": "node", "id": 6276887276, "lat": 42.3375079, "lon": -71.0870102, "tags": {"amenity": "cafe", "name": "Caff\u00e9 Strega", "opening_hours": "Mo-Fr 07:00-15:00"}}, {"type": "node", "id": 6317471485, "lat": 42.3632646, "lon": -71.0551812, "tags": {"addr:city": "Boston", "addr:housenumber": "236", "addr:postcode": "02113", "addr:state": "MA", "addr:street": "Hanover Street", "amenity": "cafe", "name": "Thinking Cup", "opening_hours": "Mo-Su 07:00-19:00", "source": "esri/Boston_MA_Addresses", "website": "http://www.thinkingcup.com/"}}, {"type": "node", "id": 6439769971, "lat": 42.3546543, "lon": -71.0548229, "tags": {"amenity": "cafe", "brand": "Starbucks", "brand:wikidata": "Q37158", "brand:wikipedia": "en:Starbucks", "cuisine": "coffee_shop", "name": "Starbucks", "official_name": "Starbucks Coffee", "takeaway": "yes"}}, {"type": "node", "id": 6482887980, "lat": 42.3606238, "lon": -71.0539479, "tags": {"amenity": "cafe", "brand": "Starbucks", "brand:wikidata": "Q37158", "brand:wikipedia": "en:Starbucks", "cuisine": "coffee_shop", "name": "Starbucks", "official_name": "Starbucks Coffee", "takeaway": "yes"}}, {"type": "node", "id": 6496175255, "lat": 42.3443875, "lon": -71.028889, "tags": {"amenity": "cafe", "name": "The Farmacy Cafe"}}, {"type": "node", "id": 6496175256, "lat": 42.3444153, "lon": -71.0296132, "tags": {"amenity": "cafe", "name": "Fare Well Restaurant"}}, {"type": "node", "id": 6545344911, "lat": 42.3383093, "lon": -71.0991118}, {"type": "node", "id": 6545344916, "lat": 42.3383728, "lon": -71.0992862}, {"type": "node", "id": 6547648487, "lat": 42.3381948, "lon": -71.0991873}, {"type": "node", "id": 6547648488, "lat": 42.3382552, "lon": -71.0993646}, {"type": "node", "id": 6558505164, "lat": 42.344001, "lon": -71.1007836, "tags": {"addr:city": "Boston", "addr:housenumber": "1375", "addr:postcode": "02215", "addr:state": "MA", "addr:street": "Boylston Street", "amenity": "cafe", "brand": "Caff\u00e8 Nero", "brand:wikidata": "Q675808", "brand:wikipedia": "en:Caff\u00e8 Nero", "cuisine": "coffee_shop", "name": "Caff\u00e8 Nero", "opening_hours": "Mo-Fr 06:30-21:00; Sa-Su 07:00-21:00", "outdoor_seating": "yes", "takeaway": "yes"}}, {"type": "node", "id": 6598892685, "lat": 42.3321631, "lon": -71.0995234, "tags": {"amenity": "cafe", "name": "Milkweed"}}, {"type": "node", "id": 6622714485, "lat": 42.351799, "lon": -71.0718774, "tags": {"addr:city": "Boston", "addr:housenumber": "399", "addr:postcode": "02116", "addr:state": "MA", "addr:street": "Boylston Street", "amenity": "cafe", "cuisine": "bagel;cake;tea;coffee_shop", "email": "tzurit@tattebakery.com", "internet_access": "wlan", "level": "0", "name": "Tatte Bakery & Cafe", "opening_hours": "Mo-Fr 07:00-20:00; Sa 08:00-20:00; Su 08:00-19:00", "outdoor_seating": "yes", "phone": "+1-617-366-1555", "website": "https://tattebakery.com/locations/boston-back-bay/"}}, {"type": "node", "id": 6627696071, "lat": 42.3514714, "lon": -71.0729805, "tags": {"addr:city": "Boston", "addr:housenumber": "443", "addr:postcode": "02116", "addr:state": "MA", "addr:street": "Boylston Street", "air_conditioning": "yes", "amenity": "cafe", "brand": "Starbucks", "brand:wikidata": "Q37158", "brand:wikipedia": "en:Starbucks", "cuisine": "coffee_shop", "internet_access": "wlan", "internet_access:fee": "no", "name": "Starbucks", "official_name": "Starbucks Coffee", "opening_hours": "Mo-Fr 07:00-20:00; Sa 08:00-20:00; Su 08:00-19:00", "opening_hours:covid19": "Mo-Su 06:00-18:00", "outdoor_seating": "no", "phone": "+1-617-536-7177", "takeaway": "yes", "website": "https://www.starbucks.com/store-locator/store/14814/"}}, {"type": "node", "id": 6662581985, "lat": 42.3552866, "lon": -71.0555793, "tags": {"amenity": "cafe", "brand": "Blue Bottle Coffee", "brand:wikidata": "Q4928917", "brand:wikipedia": "en:Blue Bottle Coffee", "cuisine": "coffee_shop", "name": "Blue Bottle Coffee", "takeaway": "yes", "website": "https://bluebottlecoffee.com/cafes/the-exchange"}}, {"type": "node", "id": 6700615686, "lat": 42.3737864, "lon": -71.0518066, "tags": {"amenity": "cafe", "name": "Style Caf\u00e9"}}, {"type": "node", "id": 6777712414, "lat": 42.3568422, "lon": -71.0580786, "tags": {"addr:city": "Boston", "addr:housenumber": "10", "addr:postcode": "02108", "addr:state": "MA", "addr:street": "Milk Street", "amenity": "cafe", "cuisine": "coffee_shop;japanese", "name": "Ogawa Coffee", "phone": "+1-617-780-7139", "website": "http://www.ogawacoffeeusa.com"}}, {"type": "node", "id": 6816271635, "lat": 42.3567502, "lon": -71.1427038, "tags": {"addr:city": "Boston", "addr:housenumber": "130", "addr:postcode": "02135", "addr:state": "MA", "addr:street": "Guest Street", "amenity": "cafe", "cuisine": "coffee_shop", "internet_access": "wlan", "internet_access:fee": "customers", "name": "Kohi Coffee company", "opening_hours": "Mo-Fr 07:00-19:00; Sa-Su 08:00-17:00", "outdoor_seating": "no", "website": "http://www.kohicoffee.com/"}}, {"type": "node", "id": 6821335613, "lat": 42.3435784, "lon": -71.0865998, "tags": {"addr:city": "Boston", "addr:housenumber": "114", "addr:postcode": "02115", "addr:state": "MA", "addr:street": "New Edgerly Road", "amenity": "cafe", "brand": "Caff\u00e8 Nero", "brand:wikidata": "Q675808", "brand:wikipedia": "en:Caff\u00e8 Nero", "cuisine": "coffee_shop", "internet_access": "wlan", "internet_access:fee": "customers", "name": "Caff\u00e8 Nero", "opening_hours": "Mo-Fr 06:00-21:00; Sa-Su 07:00-21:00", "outdoor_seating": "yes", "takeaway": "yes"}}, {"type": "node", "id": 6906434226, "lat": 42.3595155, "lon": -71.057655, "tags": {"addr:housenumber": "28", "addr:street": "State Street", "amenity": "cafe", "name": "Boston News Cafe"}}, {"type": "node", "id": 6914216586, "lat": 42.336874, "lon": -71.0474867, "tags": {"amenity": "cafe", "brand": "Caff\u00e8 Nero", "brand:wikidata": "Q675808", "brand:wikipedia": "en:Caff\u00e8 Nero", "cuisine": "coffee_shop", "name": "Caff\u00e8 Nero", "takeaway": "yes"}}, {"type": "node", "id": 6959341019, "lat": 42.3660787, "lon": -71.0281355, "tags": {"amenity": "cafe", "brand": "Starbucks", "brand:wikidata": "Q37158", "brand:wikipedia": "en:Starbucks", "cuisine": "coffee_shop", "name": "Starbucks", "official_name": "Starbucks Coffee", "opening_hours:covid19": "closed", "takeaway": "yes"}}, {"type": "node", "id": 6977540185, "lat": 42.3593235, "lon": -71.0600389, "tags": {"addr:city": "Boston", "addr:housenumber": "1", "addr:postcode": "02108", "addr:state": "MA", "addr:street": "Center Plaza", "addr:unit": "Suite 101", "air_conditioning": "yes", "amenity": "cafe", "bar": "no", "brand": "Caff\u00e8 Nero", "brand:wikidata": "Q675808", "brand:wikipedia": "en:Caff\u00e8 Nero", "contact:facebook": "https://www.facebook.com/caffenerous.centerplaza/", "contact:twitter": "https://twitter.com/CaffeNero_US", "cuisine": "coffee_shop", "internet_access": "wlan", "internet_access:fee": "no", "name": "Caff\u00e8 Nero", "opening_hours": "Mo-Fr 07:00-17:00", "phone": "+1-617-765-3731", "reservation": "no", "takeaway": "yes", "toilets": "yes", "toilets:wheelchair": "yes", "website": "https://caffenero.com/us/store/center-plaza-11026/", "wheelchair": "yes"}}, {"type": "node", "id": 7165142093, "lat": 42.3467236, "lon": -71.0796355, "tags": {"addr:housenumber": "116", "addr:street": "Huntington Ave", "amenity": "cafe", "cuisine": "coffee;wine", "internet_access": "wlan", "internet_access:fee": "no", "internet_access:ssid": "Jaho Coffee Roaster & Wine Bar", "name": "Jaho Coffee Roaster & Wine Bar", "opening_hours": "Mo-Th 06:30-23:00; Fr 06:30-24:00; Sa 07:00-12:00; Su 07:00-23:00", "outdoor_seating": "no", "phone": "+1-857-233-2704", "website": "https://www.jaho.com"}}, {"type": "node", "id": 7185571085, "lat": 42.3522328, "lon": -71.1226813, "tags": {"amenity": "cafe", "brand": "Caff\u00e8 Nero", "brand:wikidata": "Q675808", "brand:wikipedia": "en:Caff\u00e8 Nero", "cuisine": "coffee_shop", "name": "Caff\u00e8 Nero", "takeaway": "yes"}}, {"type": "node", "id": 7253463707, "lat": 42.3005455, "lon": -71.11286, "tags": {"addr:housenumber": "3710", "addr:street": "Washington Street", "amenity": "cafe", "name": "Brassica Kitchen + Cafe", "opening_hours": "Mo 06:00-16:00; Tu-Fr 06:00-16:00, 17:30-22:00; Sa 08:00-16:00, 17:30-22:00; Su 09:00-15:00", "phone": "(617) 477-4519", "website": "https://www.brassicakitchen.com/"}}, {"type": "node", "id": 7395929154, "lat": 42.300011, "lon": -71.0601167, "tags": {"addr:city": "Dorchester", "addr:housenumber": "1480", "addr:postcode": "02122", "addr:state": "MA", "addr:street": "Dorchester Avenue", "amenity": "cafe", "cuisine": "vietnamese;dessert", "name": "Coco Leaf", "not:brand:wikidata": "Q65084369", "opening_hours": "Mo-Th 08:00-21:00; Fr-Sa 06:00-23:00; Su 06:00-21:00", "phone": "(617) 506-0010", "website": "https://cocoleafboston.com/"}}, {"type": "node", "id": 7483491317, "lat": 42.3481594, "lon": -71.0871721, "tags": {"addr:city": "Boston", "addr:housenumber": "350", "addr:postcode": "02115", "addr:state": "MA", "addr:street": "Newbury Street", "air_conditioning": "yes", "amenity": "cafe", "brand": "Starbucks", "brand:wikidata": "Q37158", "brand:wikipedia": "en:Starbucks", "cuisine": "coffee_shop", "delivery": "yes", "internet_access": "yes", "internet_access:fee": "no", "internet_access:ssid": "Starbucks WiFi", "level": "0", "name": "Starbucks", "official_name": "Starbucks Coffee", "opening_hours:covid19": "open", "outdoor_seating": "no", "phone": "+1-617-859-5751", "takeaway": "yes", "website": "https://www.starbucks.com/store-locator/store/15880/", "wheelchair": "yes"}}, {"type": "node", "id": 7487603057, "lat": 42.3508102, "lon": -71.0787779, "tags": {"addr:city": "Boston", "addr:housenumber": "163", "addr:postcode": "02116", "addr:state": "MA", "addr:street": "Newbury Street", "air_conditioning": "yes", "amenity": "cafe", "brand": "Blue Bottle Coffee", "brand:wikidata": "Q4928917", "brand:wikipedia": "en:Blue Bottle Coffee", "contact:instagram": "https://www.instagram.com/bluebottle/", "cuisine": "coffee_shop", "email": "support@bluebottlecoffee.com", "internet_access": "wlan", "internet_access:fee": "no", "name": "Blue Bottle Coffee", "opening_hours": "Mo-Su 08:00-17:00", "opening_hours:covid19": "sidewalk pickup only", "outdoor_seating": "no", "payment:credit_cards": "yes", "payment:mobile_app": "yes", "phone": "+1-510-653-3394", "takeaway": "yes", "website": "https://bluebottlecoffee.com/cafes/newbury-street", "wheelchair": "no"}}, {"type": "node", "id": 7487948393, "lat": 42.3493339, "lon": -71.0810065, "tags": {"addr:city": "Boston", "addr:housenumber": "755", "addr:postcode": "02116", "addr:state": "MA", "addr:street": "Boylston Street", "amenity": "cafe", "brand": "Starbucks", "brand:wikidata": "Q37158", "brand:wikipedia": "en:Starbucks", "cuisine": "coffee_shop", "internet_access": "wlan", "internet_access:fee": "no", "name": "Starbucks", "official_name": "Starbucks Coffee", "opening_hours:covid19": "off", "outdoor_seating": "yes", "takeaway": "yes"}}, {"type": "node", "id": 7530327279, "lat": 42.3517325, "lon": -71.0754334, "tags": {"addr:city": "Boston", "addr:housenumber": "103", "addr:postcode": "02116", "addr:state": "MA", "addr:street": "Newbury Street", "amenity": "cafe", "contact:instagram": "https://www.instagram.com/revivalcafeandkitchen/", "cuisine": "breakfast;coffee_shop", "email": "hello@revivalcafeandkitchen.com", "internet_access": "wlan", "internet_access:fee": "no", "name": "Revival Cafe + Kitchen", "outdoor_seating": "yes", "phone": "+1-617-665-6899", "website": "https://www.revivalcafeandkitchen.com/"}}, {"type": "node", "id": 7530327281, "lat": 42.3511098, "lon": -71.0755741, "tags": {"addr:city": "Boston", "addr:housenumber": "220", "addr:postcode": "02116", "addr:state": "MA", "addr:street": "Clarendon Street", "amenity": "cafe", "cuisine": "chocolate;coffee_shop", "name": "L.A. Burdick Chocolates", "opening_hours:covid19": "off", "outdoor_seating": "no", "phone": "+1-617-303-0113", "website": "https://www.burdickchocolate.com/chocolateshop-cafe-boston.aspx"}}, {"type": "node", "id": 7535392540, "lat": 42.3491803, "lon": -71.0817203, "tags": {"addr:city": "Boston", "addr:housenumber": "799", "addr:postcode": "02116", "addr:state": "MA", "addr:street": "Boylston Street", "air_conditioning": "yes", "amenity": "cafe", "brand": "Peet's Coffee", "brand:wikidata": "Q1094101", "brand:wikipedia": "en:Peet's Coffee", "cuisine": "coffee_shop", "internet_access": "yes", "internet_access:fee": "customers", "name": "Peet's Coffee", "outdoor_seating": "yes", "phone": "+1-857-288-1254", "reservation": "no", "smoking": "no", "takeaway": "yes", "website": "https://www.peets.com/", "wheelchair": "yes"}}, {"type": "node", "id": 7535642191, "lat": 42.350232, "lon": -71.0809431, "tags": {"addr:city": "Boston", "addr:housenumber": "205-207", "addr:postcode": "02116", "addr:state": "MA", "addr:street": "Newbury Street", "air_conditioning": "yes", "amenity": "cafe", "bar": "no", "brand": "Caff\u00e8 Nero", "brand:wikidata": "Q675808", "brand:wikipedia": "en:Caff\u00e8 Nero", "cuisine": "coffee_shop", "internet_access": "wlan", "internet_access:fee": "customers", "level": "-1", "name": "Caff\u00e8 Nero", "outdoor_seating": "yes", "phone": "+1-617-618-6436", "reservation": "no", "takeaway": "yes", "website": "https://caffenero.com/us/store/newbury-street-11019/"}}, {"type": "node", "id": 7613653325, "lat": 42.3440967, "lon": -71.0290704, "tags": {"entrance": "yes"}}, {"type": "node", "id": 7623598056, "lat": 42.3593626, "lon": -71.0592092, "tags": {"addr:city": "Boston", "addr:housenumber": "63-65", "addr:postcode": "02108", "addr:state": "MA", "addr:street": "Court Street", "amenity": "cafe", "brand": "Starbucks", "brand:wikidata": "Q37158", "brand:wikipedia": "en:Starbucks", "cuisine": "coffee_shop", "diet:vegetarian": "yes", "internet_access": "yes", "internet_access:fee": "no", "name": "Starbucks", "official_name": "Starbucks Coffee", "opening_hours": "Mo-Fr 05:30-16:30; Sa-Su 06:30-16:30", "outdoor_seating": "no", "phone": "+1-617-227-2284", "takeaway": "yes", "website": "https://www.starbucks.com/store-locator/store/18393/steaming-kettle-63-65-court-street-boston-ma-021082109-us", "wheelchair": "yes"}}, {"type": "node", "id": 7625672556, "lat": 42.3460483, "lon": -71.0868774, "tags": {"addr:city": "Boston", "addr:housenumber": "160", "addr:postcode": "02115", "addr:state": "MA", "addr:street": "Massachusetts Avenue", "air_conditioning": "yes", "amenity": "cafe", "bar": "no", "internet_access": "wlan", "internet_access:fee": "customers", "name": "Tatte", "phone": "+1-617-655-7800", "takeaway": "yes", "website": "https://tattebakery.com/boston/"}}, {"type": "node", "id": 7644472514, "lat": 42.3559069, "lon": -71.0555332, "tags": {"addr:city": "Boston", "addr:housenumber": "0", "addr:postcode": "02109", "addr:state": "MA", "addr:street": "Post Office Square", "air_conditioning": "yes", "amenity": "cafe", "bar": "yes", "contact:facebook": "SipCafe", "contact:twitter": "hSipCafe", "cuisine": "coffee_shop;sandwich;salad;soup", "drink:beer": "yes", "drink:coffee": "yes", "drink:tea": "yes", "internet_access": "yes", "internet_access:fee": "no", "internet_access:ssid": "Norman B Leventhal Park", "name": "Sip Caf\u00e9", "opening_hours": "Mo-We 06:30-20:00; Th-Fr 06:30-21:00", "opening_hours:covid19": "open", "outdoor_seating": "yes", "payment:american_express": "yes", "payment:cash": "yes", "payment:credit_cards": "yes", "payment:debit_cards": "yes", "payment:discover_card": "yes", "payment:mastercard": "yes", "payment:visa": "yes", "phone": "+1-617-338-3080", "website": "http://www.sipboston.com/"}}, {"type": "node", "id": 7686391038, "lat": 42.3448324, "lon": -71.0640966, "tags": {"addr:city": "Boston", "addr:housenumber": "345", "addr:postcode": "02118", "addr:state": "MA", "addr:street": "Harrison Avenue", "amenity": "cafe", "name": "Tatte Bakery & Cafe", "outdoor_seating": "yes", "phone": "+1-617-830-4600", "website": "https://tattebakery.com/boston/"}}, {"type": "node", "id": 7711794773, "lat": 42.3434321, "lon": -71.1008051, "tags": {"amenity": "cafe", "brand": "Starbucks", "brand:wikidata": "Q37158", "brand:wikipedia": "en:Starbucks", "cuisine": "coffee_shop", "name": "Starbucks", "official_name": "Starbucks Coffee", "takeaway": "yes"}}, {"type": "node", "id": 7711828643, "lat": 42.3441966, "lon": -71.0982737, "tags": {"addr:city": "Boston", "addr:housenumber": "1334", "addr:postcode": "02215", "addr:state": "MA", "addr:street": "Boylston Street", "amenity": "cafe", "cuisine": "coffee_shop", "name": "Pavement Coffeehouse", "opening_hours": "Mo-Su 07:00-14:00", "outdoor_seating": "yes", "phone": "+1-857-263-7355", "website": "https://pavementcoffeehouse.com/"}}, {"type": "node", "id": 7725901192, "lat": 42.3501697, "lon": -71.0745912, "tags": {"addr:city": "Boston", "addr:housenumber": "500", "addr:postcode": "02116", "addr:state": "MA", "addr:street": "Boylston Street", "amenity": "cafe", "contact:facebook": "https://www.facebook.com/juicepress/", "contact:instagram": "https://www.instagram.com/juicepress/", "contact:twitter": "https://twitter.com/juicepresstweet", "cuisine": "juice;salad;smoothie;soup;coffee;tea", "email": "info@juicepress.com", "internet_access": "yes", "name": "Juice Press", "opening_hours": "Mo-Fr 08:00-18:00; Sa-Su 09:00-17:00", "outdoor_seating": "yes", "phone": "+1-212-777-0034", "stroller": "yes", "takeaway": "yes", "website": "https://order.juicepress.com/back-bay/menu", "wheelchair": "yes", "wikidata": "Q27150131"}}, {"type": "node", "id": 7738417284, "lat": 42.3476612, "lon": -71.0758665, "tags": {"addr:city": "Boston", "addr:housenumber": "145", "addr:postcode": "02116", "addr:state": "MA", "addr:street": "Dartmouth Street", "amenity": "cafe", "email": "jugos@juicebarboston.com", "name": "Jugos", "outdoor_seating": "no", "phone": "+1-617-418-9879", "takeaway": "yes", "website": "http://www.visitjugos.com/"}}, {"type": "node", "id": 7744048494, "lat": 42.3489786, "lon": -71.0854495, "tags": {"addr:city": "Boston", "addr:housenumber": "305", "addr:postcode": "02115", "addr:state": "MA", "addr:street": "Newbury Street", "amenity": "cafe", "cuisine": "dessert", "email": "contact@cocoleafboston.com", "name": "Coco Leaf", "not:brand:wikidata": "Q65084369", "opening_hours": "Mo 12:00-19:00; Tu-Th 11:00-19:00; Fr-Su 11:00-20:00", "outdoor_seating": "yes", "phone": "+1-617-506-0010", "website": "https://www.cocoleafboston.com/"}}, {"type": "node", "id": 7757221187, "lat": 42.3493822, "lon": -71.0839969, "tags": {"addr:city": "Boston", "addr:housenumber": "279", "addr:postcode": "02116", "addr:state": "MA", "addr:street": "Newbury Street", "amenity": "cafe", "contact:facebook": "https://www.facebook.com/TenOneTeaHouse/", "cuisine": "bubble_tea;milk_tea", "name": "Ten One Tea House", "phone": "+1-617-378-7968"}}, {"type": "node", "id": 7761545658, "lat": 42.348962, "lon": -71.0750234, "tags": {"addr:city": "Boston", "addr:housenumber": "200", "addr:postcode": "02116", "addr:state": "MA", "addr:street": "Clarendon Street", "amenity": "cafe", "cuisine": "coffee_shop;sandwich;sushi;soup;catering", "email": "manager@blueglasscafe.com", "level": "0", "name": "The Blue Glass Caf\u00e9", "outdoor_seating": "no", "phone": "+1-617-275-0250", "website": "http://www.blueglasscafe.com/", "wheelchair": "yes"}}, {"type": "node", "id": 7766310059, "lat": 42.3498704, "lon": -71.0804434, "tags": {"addr:city": "Boston", "addr:housenumber": "208", "addr:postcode": "02116", "addr:state": "MA", "addr:street": "Newbury Street", "addr:unit": "2nd Floor", "amenity": "cafe", "cuisine": "smoothie;coffee;juice;breakfast", "name": "Nourish Your Soul", "outdoor_seating": "no", "phone": "+1-781-819-5445", "website": "https://nourishyoursoul.com/in-store-menu/lululemon-menu/"}}, {"type": "node", "id": 7774760047, "lat": 42.3470076, "lon": -71.0819938, "tags": {"addr:city": "Boston", "addr:housenumber": "800", "addr:postcode": "02199", "addr:state": "MA", "addr:street": "Boylston Street", "addr:unit": "Suite 25", "amenity": "cafe", "bar": "yes", "brand": "Blue Bottle Coffee", "brand:wikidata": "Q4928917", "brand:wikipedia": "en:Blue Bottle Coffee", "cuisine": "coffee_shop", "name": "Blue Bottle Coffee", "opening_hours": "Mo-Su 08:30-16:00", "outdoor_seating": "no", "takeaway": "yes", "website": "https://bluebottlecoffee.com/cafes/the-pru"}}, {"type": "node", "id": 7776200228, "lat": 42.3468696, "lon": -71.0884133, "tags": {"addr:city": "Boston", "addr:housenumber": "1096", "addr:postcode": "02215", "addr:state": "MA", "addr:street": "Boylston Street", "amenity": "cafe", "cuisine": "coffee_shop", "internet_access": "wlan", "name": "Pavement Coffeehouse", "outdoor_seating": "yes", "phone": "+1-617-236-1500", "takeaway": "yes", "website": "https://pavementcoffeehouse.com/"}}, {"type": "node", "id": 7781917226, "lat": 42.3648359, "lon": -71.0619876, "tags": {"addr:city": "Boston", "addr:housenumber": "97", "addr:postcode": "02114", "addr:state": "MA", "addr:street": "Causeway Street", "amenity": "cafe", "brand": "Second Cup", "brand:wikidata": "Q862180", "brand:wikipedia": "en:Second Cup", "cuisine": "coffee_shop", "name": "Second Cup", "outdoor_seating": "no", "takeaway": "yes", "website": "https://www.mysecondcup.com/"}}, {"type": "node", "id": 7791858718, "lat": 42.3491546, "lon": -71.0850055, "tags": {"addr:city": "Boston", "addr:housenumber": "291", "addr:postcode": "02115", "addr:state": "MA", "addr:street": "Newbury Street", "amenity": "cafe", "cuisine": "juice;cold_press", "email": "info@motherjuiceboston.com", "name": "Mother Juice", "opening_hours": "Mo-Th 08:00-15:00; Fr-Sa 08:00-16:00; Su 09:00-16:00", "outdoor_seating": "no", "phone": "+1-857-263-7401", "takeaway": "yes", "website": "https://www.motherjuice.com/"}}, {"type": "node", "id": 7804553362, "lat": 42.3718568, "lon": -71.0388692, "tags": {"addr:city": "East Boston", "addr:housenumber": "65", "addr:postcode": "02128", "addr:state": "MA", "addr:street": "Meridian Street", "amenity": "cafe", "cuisine": "coffee_shop", "name": "Eagle Hill Cafe", "outdoor_seating": "yes"}}, {"type": "node", "id": 7804553363, "lat": 42.3719149, "lon": -71.0388759, "tags": {"amenity": "cafe", "name": "East Boston Farmstand"}}, {"type": "node", "id": 7808903597, "lat": 42.3613952, "lon": -71.0656779, "tags": {"addr:city": "Boston", "addr:housenumber": "175", "addr:postcode": "02114", "addr:state": "MA", "addr:street": "Cambridge Street", "amenity": "cafe", "cuisine": "donut;coffee_shop", "delivery": "yes", "email": "info@blackbirddoughnuts.com", "name": "Blackbird Doughnuts", "note": "Opening fall 2020", "phone": "+1-617-482-9000", "takeaway": "yes", "website": "https://www.blackbirddoughnuts.com/beacon-hill", "wheelchair": "yes"}}, {"type": "node", "id": 7818703230, "lat": 42.3656665, "lon": -71.0616154, "tags": {"addr:city": "Boston", "addr:housenumber": "90", "addr:postcode": "02114", "addr:state": "MA", "addr:street": "Causeway Street", "amenity": "cafe", "brand": "Starbucks", "brand:wikidata": "Q37158", "brand:wikipedia": "en:Starbucks", "cuisine": "coffee_shop", "layer": "0", "level": "0", "location": "indoor", "name": "Starbucks", "official_name": "Starbucks Coffee", "opening_hours": "Mo-Su 06:00-19:00", "outdoor_seating": "no", "takeaway": "yes", "website": "https://www.starbucks.com/store-locator/store/1026212/star-market-td-garden-3696-causeway-street-boston-ma-02114-us"}}, {"type": "node", "id": 7827896370, "lat": 42.3477176, "lon": -71.0823275, "tags": {"addr:city": "Boston", "addr:housenumber": "800", "addr:postcode": "02116", "addr:state": "MA", "addr:street": "Boylston Street", "amenity": "cafe", "cuisine": "coffee_shop", "name": "Caff\u00e8 Vergnano", "opening_hours": "Mo-Th 08:00-17:00; Fr-Sa 08:00-18:00; Su 08:00-17:00", "outdoor_seating": "no", "takeaway": "only", "website": "https://www.eataly.com/us_en/stores/boston/boston-caffe-vergnano/", "wheelchair": "yes"}}, {"type": "node", "id": 7830837828, "lat": 42.3492572, "lon": -71.0847915, "tags": {"addr:city": "Boston", "addr:housenumber": "285", "addr:postcode": "02115", "addr:state": "MA", "addr:street": "Newbury Street", "amenity": "cafe", "contact:instagram": "https://www.instagram.com/coffeebylt/", "contact:twitter": "https://twitter.com/coffeebylt", "cuisine": "coffee_shop", "level": "1", "name": "Linden Lounge", "outdoor_seating": "no", "website": "https://www.coffeebylt.com/"}}, {"type": "node", "id": 7838172395, "lat": 42.3670856, "lon": -71.0580727, "tags": {"addr:city": "Boston", "addr:housenumber": "287", "addr:postcode": "02114", "addr:state": "MA", "addr:street": "Causeway Street", "amenity": "cafe", "contact:facebook": "https://www.facebook.com/Caff%C3%A9-Ducali-101901814545913/", "contact:instagram": "https://www.instagram.com/caffepellicano/", "cuisine": "coffee_shop;espresso", "level": "0", "name": "Caff\u00e9 Ducali", "takeaway": "yes", "website": "http://www.duca.li/"}}, {"type": "node", "id": 7838379090, "lat": 42.3639737, "lon": -71.0505392, "tags": {"addr:city": "Boston", "addr:housenumber": "2", "addr:postcode": "02110", "addr:state": "MA", "addr:street": "Atlantic Avenue", "amenity": "cafe", "brand": "Starbucks", "brand:wikidata": "Q37158", "brand:wikipedia": "en:Starbucks", "cuisine": "coffee_shop", "internet_access": "wlan", "internet_access:fee": "no", "name": "Starbucks", "official_name": "Starbucks Coffee", "takeaway": "yes", "website": "https://www.starbucks.com/store-locator/store/9315/two-atlantic-avenue-2-atlantic-avenue-the-pilot-house-boston-ma-021103"}}, {"type": "node", "id": 7844922363, "lat": 42.3665699, "lon": -71.0510112, "tags": {"amenity": "cafe", "cuisine": "pastry;espresso;coffee", "name": "Caf\u00e9 Amalfi", "opening_hours": "Mo-Sa 07:00-17:00", "outdoor_seating": "yes", "takeaway": "yes", "website": "https://www.batterywharfhotelboston.com/dining/caf-amalfi"}}, {"type": "node", "id": 7866671394, "lat": 42.3480885, "lon": -71.083126, "tags": {"access": "yes", "addr:city": "Boston", "addr:housenumber": "888", "addr:postcode": "02116", "addr:state": "MA", "addr:street": "Boylston Street", "amenity": "cafe", "indoor": "yes", "internet_access": "yes", "internet_access:fee": "no", "level": "0", "location": "indoor", "name": "Caff\u00e8 Lavazza", "outdoor_seating": "yes", "phone": "+1-617-807-7300", "takeaway": "yes", "website": "https://www.eataly.com/us_en/stores/boston/boston-lavazza/"}}, {"type": "node", "id": 7870681717, "lat": 42.3422985, "lon": -71.0847823, "tags": {"addr:city": "Boston", "addr:housenumber": "333", "addr:postcode": "02115", "addr:state": "MA", "addr:street": "Massachusetts Avenue", "amenity": "cafe", "name": "Caff\u00e9bene", "outdoor_seating": "yes", "phone": "+1-617-982-6688", "website": "http://eng.caffebene.co.kr/", "wikidata": "Q5017149", "wikipedia": "en:Caffe Bene"}}, {"type": "node", "id": 7882332539, "lat": 42.3467974, "lon": -71.0706168, "tags": {"addr:city": "Boston", "addr:housenumber": "69", "addr:postcode": "02116", "addr:state": "MA", "addr:street": "Berkeley Street", "amenity": "cafe", "cuisine": "breakfast", "name": "Berkeley Perk Cafe", "opening_hours": "Mo-Sa 06:30-16:30", "outdoor_seating": "no", "phone": "+1-617-426-7375", "takeaway": "yes", "website": "https://berkeleyperkcafe.has.restaurant/", "wheelchair": "yes"}}, {"type": "node", "id": 7888717564, "lat": 42.3559805, "lon": -71.057455, "tags": {"addr:city": "Boston", "addr:housenumber": "121", "addr:postcode": "02110", "addr:state": "MA", "addr:street": "Devonshire Street", "amenity": "cafe", "contact:facebook": "https://www.facebook.com/rendercoffee/", "contact:instagram": "https://www.instagram.com/rendercoffee/", "cuisine": "coffee_shop", "delivery": "yes", "internet_access": "wlan", "name": "Render Coffee", "opening_hours": "Mo-Fr 07:00-17:00", "outdoor_seating": "no", "phone": "+1-617-401-2421", "start_date": "2011", "takeaway": "yes", "website": "https://www.rendercoffeebar.com/"}}, {"type": "node", "id": 7995658761, "lat": 42.3504764, "lon": -71.057103, "tags": {"addr:city": "Boston", "addr:housenumber": "745", "addr:postcode": "02111", "addr:state": "MA", "addr:street": "Atlantic Avenue", "air_conditioning": "yes", "amenity": "cafe", "bar": "yes", "brand": "La Colombe Coffee Roasters", "brand:wikidata": "Q23461663", "brand:wikipedia": "en:La Colombe Coffee Roasters", "cuisine": "coffee_shop", "level": "0", "name": "La Colombe Coffee Roasters", "phone": "+1-857-317-5340", "short_name": "La Colombe", "takeaway": "yes", "website": "https://www.lacolombe.com/pages/cafes#boston", "wheelchair": "yes"}}, {"type": "node", "id": 8006924083, "lat": 42.336282, "lon": -71.1501573, "tags": {"addr:city": "Brighton", "addr:housenumber": "1948", "addr:postcode": "02135", "addr:state": "MA", "addr:street": "Beacon Street", "amenity": "cafe", "brand": "Starbucks", "brand:wikidata": "Q37158", "brand:wikipedia": "en:Starbucks", "cuisine": "coffee_shop", "name": "Starbucks", "official_name": "Starbucks Coffee", "takeaway": "yes"}}, {"type": "node", "id": 8006948661, "lat": 42.3416427, "lon": -71.1543037, "tags": {"addr:city": "Brighton", "addr:housenumber": "152", "addr:postcode": "02135", "addr:state": "MA", "addr:street": "Chestnut Hill Avenue", "amenity": "cafe", "cuisine": "coffee_shop", "internet_access": "wlan", "name": "Fuel America", "opening_hours": "07:30-18:00"}}, {"type": "node", "id": 8036410780, "lat": 42.3534914, "lon": -71.0465206, "tags": {"addr:city": "Boston", "addr:housenumber": "103", "addr:postcode": "02210", "addr:state": "MA", "addr:street": "Northern Avenue", "air_conditioning": "yes", "amenity": "cafe", "brand": "Starbucks", "brand:wikidata": "Q37158", "brand:wikipedia": "en:Starbucks", "cuisine": "coffee_shop", "internet_access": "wlan", "internet_access:fee": "no", "level": "0", "name": "Starbucks", "official_name": "Starbucks Coffee", "outdoor_seating": "no", "phone": "+1-857-406-3564", "takeaway": "yes", "website": "https://app.starbucks.com/store-locator/store/1009368/seaport-blvd-103-seaport-blvd-boston-ma-022102050-us", "wheelchair": "yes"}}, {"type": "node", "id": 8441344794, "lat": 42.3439074, "lon": -71.0624658, "tags": {"addr:city": "Boston", "addr:housenumber": "57", "addr:postcode": "02118", "addr:state": "MA", "addr:street": "Traveler Street", "amenity": "cafe", "cuisine": "coffee_shop;australian", "name": "Cuppacoffee", "opening_hours": "Mo-Su 06:00-13:30", "website": "http://www.trycuppacoffee.com"}}, {"type": "node", "id": 8441559626, "lat": 42.3459697, "lon": -71.0630103, "tags": {"addr:city": "Boston", "addr:housenumber": "310", "addr:postcode": "02118", "addr:state": "MA", "addr:street": "Harrison Avenue", "amenity": "cafe", "branch": "(inside Capital One)", "brand": "Peet's Coffee", "brand:wikidata": "Q1094101", "brand:wikipedia": "en:Peet's Coffee", "cuisine": "coffee_shop", "name": "Peet's Coffee", "opening_hours": "Mo-Sa 07:00-16:00", "phone": "+16178307135", "takeaway": "yes", "website": "https://www.peets.com/"}}, {"type": "node", "id": 8483361887, "lat": 42.3633549, "lon": -71.0563399, "tags": {"addr:city": "Boston", "addr:housenumber": "58", "addr:postcode": "02113", "addr:state": "MA", "addr:street": "Salem Street", "amenity": "cafe", "name": "The Juicery"}}, {"type": "node", "id": 8565707929, "lat": 42.3489968, "lon": -71.1536055, "tags": {"addr:city": "Brighton", "addr:housenumber": "362", "addr:postcode": "02135", "addr:state": "MA", "addr:street": "Washington Street", "amenity": "cafe", "cuisine": "coffee_shop", "name": "Cafe Mirror"}}, {"type": "node", "id": 8981460769, "lat": 42.3335187, "lon": -71.1057948, "tags": {"amenity": "cafe", "name": "Tbaar"}}, {"type": "node", "id": 9124686617, "lat": 42.3115609, "lon": -71.0538844, "tags": {"addr:housenumber": "107-109", "addr:postcode": "02125", "addr:street": "Savin Hill Avenue", "amenity": "cafe", "cuisine": "american;breakfast;coffee_shop", "name": "McKenna's Cafe", "opening_hours": "Mo-Sa 06:00-16:00; Su 06:00-15:00", "website": "http://mckennascafe.com"}}, {"type": "node", "id": 9162362340, "lat": 42.3516566, "lon": -71.0551892, "tags": {"amenity": "cafe", "cuisine": "sandwich", "name": "Melting Sun", "outdoor_seating": "no", "reservation": "no", "wheelchair": "yes"}}, {"type": "node", "id": 9225398678, "lat": 42.3738788, "lon": -71.0389501}, {"type": "node", "id": 9294521418, "lat": 42.3378849, "lon": -71.0753844, "tags": {"addr:city": "Boston", "addr:housenumber": "1651", "addr:state": "MA", "addr:street": "Washington Street", "amenity": "cafe", "name": "Jaho Coffee & Tea", "website": "https://www.jaho.com/pages/southend"}}, {"type": "node", "id": 9296474824, "lat": 42.3745184, "lon": -71.0389155, "tags": {"amenity": "cafe", "cuisine": "bubble_tea", "name": "Sweet BoBa"}}, {"type": "node", "id": 9325753303, "lat": 42.3629022, "lon": -71.0177584, "tags": {"amenity": "cafe", "brand": "Starbucks", "brand:wikidata": "Q37158", "brand:wikipedia": "en:Starbucks", "cuisine": "coffee_shop", "name": "Starbucks", "official_name": "Starbucks Coffee", "takeaway": "yes"}}, {"type": "node", "id": 9328864868, "lat": 42.3738808, "lon": -71.0388716, "tags": {"artwork_type": "mural", "tourism": "artwork"}}, {"type": "node", "id": 9349874899, "lat": 42.3518752, "lon": -71.1241231, "tags": {"addr:housenumber": "1092", "addr:street": "Commonwealth Avenue", "amenity": "cafe", "cuisine": "bubble_tea", "name": "LimeRed Teahouse", "website": "https://www.limeredteahouse.com/"}}, {"type": "node", "id": 9349901499, "lat": 42.3523015, "lon": -71.1216801, "tags": {"amenity": "cafe", "name": "Brown Sugar Cafe"}}, {"type": "node", "id": 9349909552, "lat": 42.3525926, "lon": -71.1237969, "tags": {"amenity": "cafe", "brand": "Starbucks", "brand:wikidata": "Q37158", "brand:wikipedia": "en:Starbucks", "cuisine": "coffee_shop", "name": "Starbucks", "official_name": "Starbucks Coffee", "takeaway": "yes"}}, {"type": "node", "id": 9349922468, "lat": 42.3516917, "lon": -71.1315268, "tags": {"addr:city": "Allston", "addr:housenumber": "154", "addr:postcode": "02134", "addr:state": "MA", "addr:street": "Harvard Avenue", "amenity": "cafe", "brand": "Gong Cha", "brand:website": "https://gongchausa.com/", "brand:wikidata": "Q5581670", "brand:wikipedia": "en:Gong Cha", "brand:zh": "\u8ca2\u8336", "cuisine": "bubble_tea", "int_name": "Gong Cha", "name": "Gong Cha", "name:zh": "\u8ca2\u8336", "takeaway": "yes"}}, {"type": "node", "id": 9382274419, "lat": 42.3549282, "lon": -71.0616918, "tags": {"addr:city": "Boston", "addr:housenumber": "55", "addr:state": "MA", "addr:street": "Temple Place", "amenity": "cafe", "name": "Bonjour Cafe"}}, {"type": "node", "id": 9527917414, "lat": 42.3681611, "lon": -71.040656, "tags": {"addr:city": "East Boston", "addr:housenumber": "11", "addr:postcode": "02128", "addr:state": "MA", "addr:street": "Monsignor Albert A Jacobbe Road", "amenity": "cafe", "cuisine": "coffee_shop;sandwich;american", "diet:dairy_free": "yes", "diet:gluten_free": "yes", "diet:healthy": "yes", "diet:nut_free": "yes", "diet:vegan": "yes", "diet:vegetarian": "yes", "name": "Cafe Iterum", "outdoor_seating": "no", "phone": "857.233.5013", "website": "https://www.cafeiterum.com/"}}, {"type": "node", "id": 9611968790, "lat": 42.3524742, "lon": -71.1254085, "tags": {"amenity": "cafe", "brand": "Kung Fu Tea", "brand:website": "https://kungfutea.com/", "brand:wikidata": "Q66023886", "brand:wikipedia": "en:Kung Fu Tea", "cuisine": "bubble_tea", "name": "Kung Fu Tea", "takeaway": "yes"}}, {"type": "node", "id": 9615103302, "lat": 42.3531696, "lon": -71.1319409, "tags": {"addr:city": "Allston", "addr:housenumber": "155", "addr:postcode": "02134", "addr:state": "MA", "addr:street": "Brighton Avenue", "amenity": "cafe", "name": "Madame Tea", "website": "http://www.madametea.net/"}}, {"type": "node", "id": 9619947149, "lat": 42.3529358, "lon": -71.1327403, "tags": {"addr:city": "Allston", "addr:housenumber": "164", "addr:postcode": "02134", "addr:state": "MA", "addr:street": "Brighton Avenue", "amenity": "cafe", "brand": "Moge Tee", "brand:website": "https://mogeteeusa.com/", "cuisine": "bubble_tea", "name": "Moge Tee"}}, {"type": "node", "id": 9627847824, "lat": 42.3536571, "lon": -71.1323856, "tags": {"addr:city": "Allston", "addr:housenumber": "77", "addr:postcode": "02134", "addr:state": "MA", "addr:street": "Harvard Avenue", "amenity": "cafe", "contact:instagram": "https://www.instagram.com/fruity_greentea/", "cuisine": "bubble_tea", "name": "Fruity"}}, {"type": "node", "id": 9647708058, "lat": 42.3509583, "lon": -71.1315246, "tags": {"addr:city": "Allston", "addr:housenumber": "181", "addr:postcode": "02134", "addr:state": "MA", "addr:street": "Harvard Avenue", "amenity": "cafe", "brand": "Tiger Sugar", "brand:wikidata": "Q76099070", "cuisine": "bubble_tea", "name": "Tiger Sugar", "takeaway": "yes", "website": "https://tigersugarma.com/"}}, {"type": "node", "id": 9667291260, "lat": 42.3467903, "lon": -71.1057286, "tags": {"addr:city": "Boston", "addr:housenumber": "900", "addr:postcode": "02215", "addr:state": "MA", "addr:street": "Beacon Street", "amenity": "cafe", "name": "Cafe Landwer"}}, {"type": "way", "id": 29610288, "nodes": [326072297, 325918781, 325978813, 325323781, 325372918, 326053007, 326072297], "tags": {"addr:city": "Boston", "addr:housenumber": "1024", "addr:postcode": "02118", "addr:state": "MA", "addr:street": "Massachusetts Avenue", "amenity": "cafe", "building": "yes", "cuisine": "diner", "name": "Victoria's Diner", "source": "esri/Boston_MA_Addresses", "website": "https://www.victoriasdiner.com/"}}, {"type": "way", "id": 29631034, "nodes": [326157680, 326165484, 326200108, 326203523, 326227820, 326231769, 326157680], "tags": {"addr:city": "Boston", "addr:housenumber": "415", "addr:postcode": "02135", "addr:street": "Western Avenue", "amenity": "cafe", "building": "yes", "name": "Pavement Coffeehouse", "website": "http://www.espressoexpress.net/"}}, {"type": "way", "id": 29796832, "nodes": [328198619, 328151134, 328219611, 328173950, 328160307, 328116492, 328111542, 328133936, 328124892, 328094205, 328085447, 328108950, 328100509, 328188723, 328220493, 328209511, 328161052, 328081387, 328152207, 328085509, 328137460, 328101257, 328093295, 328183706, 328198619], "tags": {"addr:city": "Boston", "addr:housenumber": "360", "addr:postcode": "02215", "addr:state": "MA", "addr:street": "Longwood Avenue", "amenity": "cafe", "brand": "Caffe Nero", "building": "yes", "cuisine": "coffee_shop", "name": "CafFe Nero", "opening_hours": "Mo-Fr 06:30-18:00", "website": "https://caffenero.com/us/"}}, {"type": "way", "id": 29884971, "nodes": [3185778765, 329278439, 329316928, 329262535, 329296437, 329235700, 329269940, 327290502, 327293616, 327283701, 327278623, 327267724, 3185778765], "tags": {"addr:city": "Jamaica Plain", "addr:housenumber": "3496", "addr:postcode": "02130", "addr:state": "MA", "addr:street": "Washington Street", "amenity": "cafe", "building": "yes", "lgbtq": "primary", "name": "Midway Cafe"}}, {"type": "way", "id": 29964670, "nodes": [329918543, 329918544, 946357490, 329918545, 329918538, 329918539, 2095655591, 2095655593, 329918543], "tags": {"amenity": "cafe", "building": "yes", "name": "Sidewalk Cafe"}}, {"type": "way", "id": 212123377, "nodes": [2220121548, 2220121552, 2220121551, 2220121553, 2220121554, 2220121558, 2220121556, 2220121557, 2220121555, 2220121561, 2220121550, 2220121549, 2220121548], "tags": {"addr:housenumber": "199A", "addr:street": "Faneuil Hall Square", "amenity": "cafe", "building": "yes", "name": "Cafe Pulse"}}, {"type": "way", "id": 406469861, "nodes": [4085358774, 2266605622, 2266605610, 7613653325, 4085358772, 4085358774], "tags": {"addr:city": "Boston", "addr:housenumber": "25", "addr:postcode": "02210", "addr:state": "MA", "addr:street": "Dry Dock Avenue", "amenity": "cafe", "building": "yes", "building:levels": "8", "name": "The Farmacy Cafe", "smoking": "no", "source": "esri/Boston_MA_AddressesC"}}, {"type": "way", "id": 408952652, "nodes": [4108532861, 9225398678, 9328864868, 329842435, 4108532866, 4108532865, 4108532864, 4108532863, 4108532861], "tags": {"addr:city": "East Boston", "addr:housenumber": "155-157", "addr:postcode": "02128", "addr:state": "MA", "addr:street": "Meridian Street", "amenity": "cafe", "building": "yes", "name": "Americano Espresso Bar", "source": "esri/Boston_MA_Addresses"}}, {"type": "way", "id": 697144240, "nodes": [6545344916, 6545344911, 6547648487, 6547648488, 6545344916], "tags": {"amenity": "cafe", "indoor": "room", "name": "Cafe G"}}]}